{
"type": "FeatureCollection",
"name": "bakery",
"crs": { "type": "name", "properties": { "name": "urn:ogc:def:crs:OGC:1.3:CRS84" } },
"features": [
{ "type": "Feature", "properties": { "name": "مخبز عيش بلدى", "shop": "bakery", "check_date": "23/7/2026", "takeaway": "no", "brand": "عيش بلدى", "amenity": "حكومى", "phone": null, "addr_stree": "حارة احمد السنوسى،العمرانيه الغربية" }, "geometry": { "type": "Point", "coordinates": [ 31.211108288000048, 30.022456396000052, 0.0 ] } },
{ "type": "Feature", "properties": { "name": "فرن عيش", "shop": "bakery", "check_date": "23/7/2026", "takeaway": "no", "brand": "فينو", "amenity": "حكومى", "phone": null, "addr_stree": "يحيي محمد،الكوم الاخضر،قسم الجيزة" }, "geometry": { "type": "Point", "coordinates": [ 31.204681104000031, 29.976448646000051, 0.0 ] } },
{ "type": "Feature", "properties": { "name": "مخبز مجدى احمد موسي", "shop": "bakery", "check_date": "23/7/2026", "takeaway": "no", "brand": "عيش بلدى", "amenity": "حكومى", "phone": null, "addr_stree": "الصناديلى ، ثالثة ،قسم الجيزة" }, "geometry": { "type": "Point", "coordinates": [ 31.21239483800008, 30.011343747000069, 0.0 ] } },
{ "type": "Feature", "properties": { "name": "مخبزة المحطة", "shop": "bakery", "check_date": "23/7/2026", "takeaway": "no", "brand": "عيش بلدى", "amenity": "حكومى", "phone": null, "addr_stree": "المحطة،ثانية،قسم الجيزة" }, "geometry": { "type": "Point", "coordinates": [ 31.213410639000074, 30.010487226000066, 0.0 ] } },
{ "type": "Feature", "properties": { "name": "فرن الخراط", "shop": "bakery", "check_date": "23/7/2026", "takeaway": "no", "brand": "عيش بلدى", "amenity": "حكومى", "phone": null, "addr_stree": "محمد زاهر،اولى،قسم الجيزة" }, "geometry": { "type": "Point", "coordinates": [ 31.210059485000045, 30.012480634000042, 0.0 ] } },
{ "type": "Feature", "properties": { "name": "مخبز الزناتى", "shop": "bakery", "check_date": "23/7/2026", "takeaway": "no", "brand": "عيش بلدى", "amenity": "حكومى", "phone": "01116584898", "addr_stree": "58شارع المأمون" }, "geometry": { "type": "Point", "coordinates": [ 31.213116485000057, 30.007977580000045, 0.0 ] } },
{ "type": "Feature", "properties": { "name": "مخبوزات الهلال", "shop": "bakery", "check_date": "23/7/2026", "takeaway": "no", "brand": "فينو", "amenity": "حكومى", "phone": "035723609", "addr_stree": "225شارع الملك فيصل،اولى،قسم الجيزة" }, "geometry": { "type": "Point", "coordinates": [ 31.212251693000042, 30.014244566000059, 0.0 ] } },
{ "type": "Feature", "properties": { "name": "مخبز النجاح", "shop": "bakery", "check_date": "23/7/2026", "takeaway": "no", "brand": "فينو", "amenity": "حكومى", "phone": null, "addr_stree": "رابعه،قسم الجيزة" }, "geometry": { "type": "Point", "coordinates": [ 31.212698031000059, 30.003956531000028, 0.0 ] } },
{ "type": "Feature", "properties": { "name": "مخبز رضوان و شركائه", "shop": "bakery", "check_date": "23/7/2026", "takeaway": "no", "brand": "عيش بلدى", "amenity": "حكومى", "phone": null, "addr_stree": "المرحوم سيد طلبه، اولى،قسم الجيزة" }, "geometry": { "type": "Point", "coordinates": [ 31.213581461000047, 30.013323491000051, 0.0 ] } },
{ "type": "Feature", "properties": { "name": "مخابز بحلق", "shop": "bakery", "check_date": "23/7/2026", "takeaway": "no", "brand": "عيش بلدى", "amenity": "حكومى", "phone": "01128516528", "addr_stree": "البحر الاعظم،ساقية مكى" }, "geometry": { "type": "Point", "coordinates": [ 31.21422284700003, 29.998096299000053, 0.0 ] } },
{ "type": "Feature", "properties": { "name": "مخبز اولاد الحاج مكرم", "shop": "bakery", "check_date": "23/7/2026", "takeaway": "no", "brand": "عيش بلدى", "amenity": "حكومى", "phone": "01125840959", "addr_stree": "منطقة اولاد الحج مكرم المرازيق" }, "geometry": { "type": "Point", "coordinates": [ 31.208495485000071, 30.015141828000026, 0.0 ] } },
{ "type": "Feature", "properties": { "name": "مخبز اولاد أبوالجود أحمد للخبز البلدي", "shop": "bakery", "check_date": "23/7/2026", "takeaway": "no", "brand": "عيش بلدى", "amenity": "حكومى", "phone": "01020385279", "addr_stree": "جمعية المحافظة على القرآن الكريم" }, "geometry": { "type": "Point", "coordinates": [ 31.213804300000049, 30.010490180000033, 0.0 ] } },
{ "type": "Feature", "properties": { "name": "مخبز/عماد أبوالجود أحمد", "shop": "bakery", "check_date": "23/7/2026", "takeaway": "no", "brand": "عيش بلدى", "amenity": "حكومى", "phone": null, "addr_stree": "حارة الليثى الحكيم،ثانية، قسم الجيزة" }, "geometry": { "type": "Point", "coordinates": [ 31.213953828000058, 30.010374205000062, 0.0 ] } },
{ "type": "Feature", "properties": { "name": "مخبز عيش بلدى", "shop": "bakery", "check_date": "23/7/2026", "takeaway": "no", "brand": "عيش بلدى", "amenity": "حكومى", "phone": null, "addr_stree": "اولى،قسم الجيزة" }, "geometry": { "type": "Point", "coordinates": [ 31.210643485000048, 30.017653770000038, 0.0 ] } },
{ "type": "Feature", "properties": { "name": "فرن عيش", "shop": "bakery", "check_date": "23/7/2026", "takeaway": "no", "brand": "عيش بلدى", "amenity": "حكومى", "phone": null, "addr_stree": "الحويتية،حى العجوزة" }, "geometry": { "type": "Point", "coordinates": [ 31.212452100000064, 30.013870680000025, 0.0 ] } },
{ "type": "Feature", "properties": { "name": "مخبوزات الثورة2", "shop": "bakery", "check_date": "23/7/2026", "takeaway": "no", "brand": "عيش بلدى", "amenity": "حكومى", "phone": "01044889167", "addr_stree": "الحرية،ترسا،قسم الجيزة" }, "geometry": { "type": "Point", "coordinates": [ 31.210085027000048, 29.981616917000053, 0.0 ] } },
{ "type": "Feature", "properties": { "name": "مخبز شومان", "shop": "pastries", "check_date": "23/7/2026", "takeaway": "no", "brand": "عيش بلدى", "amenity": "حكومى", "phone": null, "addr_stree": "النصر،ترسا،قسم الجيزة" }, "geometry": { "type": "Point", "coordinates": [ 31.203895347000071, 29.979101218000039, 0.0 ] } },
{ "type": "Feature", "properties": { "name": "مخبز خبز سياحى", "shop": "bakery", "check_date": "20/7/2026", "takeaway": "no", "brand": "عيش بلدى", "amenity": "حكومى", "phone": null, "addr_stree": null }, "geometry": { "type": "Point", "coordinates": [ 31.2094337, 29.9949881, 0.0 ] } },
{ "type": "Feature", "properties": { "name": "مخبز خبز مدعم", "shop": "bakery", "check_date": "20/7/2026", "takeaway": "no", "brand": "عيش بلدى", "amenity": "حكومى", "phone": null, "addr_stree": null }, "geometry": { "type": "Point", "coordinates": [ 31.2102517, 29.9950601, 0.0 ] } },
{ "type": "Feature", "properties": { "name": "ئمائماد", "shop": "bakery", "check_date": "20/7/2026", "takeaway": "no", "brand": "عيش بلدى", "amenity": "حكومى", "phone": null, "addr_stree": null }, "geometry": { "type": "Point", "coordinates": [ 31.216295, 30.0036568, 0.0 ] } },
{ "type": "Feature", "properties": { "name": "monginy", "shop": "bakery", "check_date": "20/7/2026", "takeaway": "yes", "brand": "فينو", "amenity": "خاص", "phone": "+20225788887", "addr_stree": "امام مستشفى الرمد ،476الهرم" }, "geometry": { "type": "Point", "coordinates": [ 31.215181207358381, 30.01573740297885, 0.0 ] } },
{ "type": "Feature", "properties": { "name": "الدمياطى", "shop": "bakery", "check_date": "20/7/2026", "takeaway": "yes", "brand": "فينو", "amenity": "خاص", "phone": "01110128838", "addr_stree": "34البحر الاعظم العمرانية" }, "geometry": { "type": "Point", "coordinates": [ 31.21466759297849, 30.001717295710961, 0.0 ] } },
{ "type": "Feature", "properties": { "name": "العبد", "shop": "confectionery", "check_date": "20/7/2026", "takeaway": "yes", "brand": "فينو", "amenity": "خاص", "phone": "+20233380103", "addr_stree": "47موصدق، الدقى" }, "geometry": { "type": "Point", "coordinates": [ 31.212862410766238, 30.0161103855222, 0.0 ] } },
{ "type": "Feature", "properties": { "name": "امير الدمياطى", "shop": "pastry", "check_date": "20/7/2026", "takeaway": "yes", "brand": "فينو", "amenity": "خاص", "phone": "+20235705450", "addr_stree": "523الهرم" }, "geometry": { "type": "Point", "coordinates": [ 31.212865018012341, 30.01505992180207, 0.0 ] } },
{ "type": "Feature", "properties": { "name": "طيبه2", "shop": "pastry", "check_date": "20/7/2026", "takeaway": "yes", "brand": "فينو", "amenity": "خاص", "phone": "01144071259", "addr_stree": "77صلاح سالم" }, "geometry": { "type": "Point", "coordinates": [ 31.209557792907301, 30.00873409389775, 0.0 ] } },
{ "type": "Feature", "properties": { "name": "لابوار", "shop": "confectionery", "check_date": "20/7/2026", "takeaway": "yes", "brand": "فينو", "amenity": "خاص", "phone": "+20223229012", "addr_stree": "شارع النيل الجيزة" }, "geometry": { "type": "Point", "coordinates": [ 31.217926899605299, 30.027164129170981, 0.0 ] } },
{ "type": "Feature", "properties": { "name": "ماريان", "shop": "pastry", "check_date": "20/7/2026", "takeaway": "yes", "brand": "فينو", "amenity": "خاص", "phone": "+20235725971", "addr_stree": "8ش مراد الجيزة" }, "geometry": { "type": "Point", "coordinates": [ 31.213063707815849, 30.016451617602151, 0.0 ] } },
{ "type": "Feature", "properties": { "name": "مخبز عيش بلدى", "shop": "bakery", "check_date": "20/7/2026", "takeaway": "no", "brand": "عيش بلدى", "amenity": "حكومى", "phone": null, "addr_stree": "اولى ، الجيزة" }, "geometry": { "type": "Point", "coordinates": [ 31.210624100074291, 30.017090095039439, 0.0 ] } },
{ "type": "Feature", "properties": { "name": "مخبوزات التحرير", "shop": "bakery", "check_date": "20/7/2026", "takeaway": "no", "brand": "عيش بلدى", "amenity": "حكومى", "phone": "01004335756", "addr_stree": "ش الصناديلى ميدان الجيزة" }, "geometry": { "type": "Point", "coordinates": [ 31.211771487518579, 30.01024311701698, 0.0 ] } },
{ "type": "Feature", "properties": { "name": "مخبوزات", "shop": "bakery", "check_date": "20/7/2026", "takeaway": "no", "brand": "عيش بلدى", "amenity": "حكومى", "phone": "+20233068723", "addr_stree": "16ش احمد فرحات" }, "geometry": { "type": "Point", "coordinates": [ 31.208852603555432, 30.013055698260409, 0.0 ] } },
{ "type": "Feature", "properties": { "name": "مكه", "shop": "bakery", "check_date": "20/7/2026", "takeaway": "no", "brand": "عيش بلدى", "amenity": "حكومى", "phone": "+20235698655", "addr_stree": "الصناديلى اولى" }, "geometry": { "type": "Point", "coordinates": [ 31.212427000855591, 30.012787787276469, 0.0 ] } }
]
}
