{
"type": "FeatureCollection",
"name": "banks",
"crs": { "type": "name", "properties": { "name": "urn:ogc:def:crs:OGC:1.3:CRS84" } },
"features": [
{ "type": "Feature", "properties": { "OBJECTID_12": 1, "OBJECTID_1": 1, "objectid": 1552.0, "الكود": "2104030040056000A0010101", "الرقم": "LG 72 22 62 71 48A0010101", "owner_تع": "البنك التجارى الدولى", "name_تع": "البنك التجارى الدولى", "addrnote_": "البنك التجارى الدولى", "owner_تع_1": "البنك التجارى الدولى", "كود_ا": "بنك", "النشا": "بنك", "نوع_ا": "1", "gov_name": "محافظه الجيزه", "gov_code": "21", "sec_name": "قسم الجيزه", "sec_code": "04", "ssec_name": "شياخه اولى", "ssec_code": "03", "unitcode": "210403", "addr1_2016": 0.0, "addr2_2016": " ", "addr3_2016": "ش شارل ديجول", "uniqe_code": "2104030040056000", "spatial_id": "LG 72 22 62 71 48", "source": " ", "created_us": " ", "created_da": " ", "last_edite": " ", "last_edi_1": " ", "x": 328029.1759, "y": 3322527.5061 }, "geometry": { "type": "Point", "coordinates": [ 31.216709283184986, 30.021685072519602 ] } },
{ "type": "Feature", "properties": { "OBJECTID_12": 2, "OBJECTID_1": 2, "objectid": 1563.0, "الكود": "2104060120336000A0000201", "الرقم": "LG 72 20 74 26 16A0000201", "owner_تع": "قطر الوطنى الاهلى", "name_تع": "البنك الاهلى القطرى", "addrnote_": "بنك قطر الاهلى", "owner_تع_1": "بنك قطر الاهلى", "كود_ا": "بنك", "النشا": "بنك", "نوع_ا": "1", "gov_name": "محافظه الجيزه", "gov_code": "21", "sec_name": "قسم الجيزه", "sec_code": "04", "ssec_name": "شياخه رابعه", "ssec_code": "06", "unitcode": "210406", "addr1_2016": 304.0, "addr2_2016": " ", "addr3_2016": "ش شهداء25 يناير", "uniqe_code": "2104060120336000", "spatial_id": "LG 72 20 74 26 16", "source": " ", "created_us": " ", "created_da": " ", "last_edite": " ", "last_edi_1": " ", "x": 328052.4348, "y": 3320774.217 }, "geometry": { "type": "Point", "coordinates": [ 31.217233323988811, 30.005873310709024 ] } },
{ "type": "Feature", "properties": { "OBJECTID_12": 3, "OBJECTID_1": 3, "objectid": 1585.0, "الكود": "2104030020027000A0000301", "الرقم": "LG 72 21 46 69 32A0000301", "owner_تع": "بنك القاهره", "name_تع": "بنك القاهره", "addrnote_": "بنك القاهره", "owner_تع_1": "قطاع عام", "كود_ا": "بنك", "النشا": "بنك", "نوع_ا": "1", "gov_name": "محافظه الجيزه", "gov_code": "21", "sec_name": "قسم الجيزه", "sec_code": "04", "ssec_name": "شياخه اولى", "ssec_code": "03", "unitcode": "210403", "addr1_2016": 9.0, "addr2_2016": " ", "addr3_2016": "ش همدان", "uniqe_code": "2104030020027000", "spatial_id": "LG 72 21 46 69 32", "source": " ", "created_us": " ", "created_da": " ", "last_edite": " ", "last_edi_1": " ", "x": 327811.3029, "y": 3322003.6302999998 }, "geometry": { "type": "Point", "coordinates": [ 31.214535602342437, 30.016928982260701 ] } },
{ "type": "Feature", "properties": { "OBJECTID_12": 4, "OBJECTID_1": 4, "objectid": 1612.0, "الكود": "2104030040089000A0000601", "الرقم": "LG 72 12 67 58 41A0000601", "owner_تع": "البنك الاهلى المصرى", "name_تع": "البنك الاهلى", "addrnote_": "البنك الاهلى", "owner_تع_1": "البنك الاهلى", "كود_ا": "بنك", "النشا": "بنك", "نوع_ا": "1", "gov_name": "محافظه الجيزه", "gov_code": "21", "sec_name": "قسم الجيزه", "sec_code": "04", "ssec_name": "شياخه اولى", "ssec_code": "03", "unitcode": "210403", "addr1_2016": 0.0, "addr2_2016": " ", "addr3_2016": "ش جامعه القاهره", "uniqe_code": "2104030040089000", "spatial_id": "LG 72 12 67 58 41", "source": " ", "created_us": " ", "created_da": " ", "last_edite": " ", "last_edi_1": " ", "x": 327144.064, "y": 3323120.7714 }, "geometry": { "type": "Point", "coordinates": [ 31.207438360240332, 30.026911723445007 ] } },
{ "type": "Feature", "properties": { "OBJECTID_12": 5, "OBJECTID_1": 5, "objectid": 1622.0, "الكود": "2104030030090000A0060701", "الرقم": "LG 72 22 50 30 16A0060701", "owner_تع": "بنك", "name_تع": "بنك مصر", "addrnote_": "بنك مصر", "owner_تع_1": "مصر", "كود_ا": "بنك", "النشا": "بنك", "نوع_ا": "1", "gov_name": "محافظه الجيزه", "gov_code": "21", "sec_name": "قسم الجيزه", "sec_code": "04", "ssec_name": "شياخه اولى", "ssec_code": "03", "unitcode": "210403", "addr1_2016": 28.0, "addr2_2016": " ", "addr3_2016": "ش مراد", "uniqe_code": "2104030030090000", "spatial_id": " ", "source": " ", "created_us": " ", "created_da": " ", "last_edite": " ", "last_edi_1": " ", "x": 327883.404, "y": 3322317.505 }, "geometry": { "type": "Point", "coordinates": [ 31.215232216735643, 30.019770331874842 ] } },
{ "type": "Feature", "properties": { "OBJECTID_12": 6, "OBJECTID_1": 6, "objectid": 1629.0, "الكود": "2104070040161000A0000801", "الرقم": "LG 71 29 50 08 47A0000801", "owner_تع": "وزاره الاستثمار", "name_تع": "بنك الاسكندريه", "addrnote_": "بنك الاسكندريه", "owner_تع_1": "وزاره الاستثمار", "كود_ا": "بنك", "النشا": "بنك", "نوع_ا": "1", "gov_name": "محافظه الجيزه", "gov_code": "21", "sec_name": "قسم الجيزه", "sec_code": "04", "ssec_name": "شياخه ساقيه مكى", "ssec_code": "07", "unitcode": "210407", "addr1_2016": 0.0, "addr2_2016": " ", "addr3_2016": "ش البحر الاعظم", "uniqe_code": "2104070040161000", "spatial_id": "LG 71 29 50 08 47", "source": " ", "created_us": " ", "created_da": " ", "last_edite": " ", "last_edi_1": " ", "x": 327817.5626, "y": 3319398.5039 }, "geometry": { "type": "Point", "coordinates": [ 31.215021297802153, 29.993431083202321 ] } },
{ "type": "Feature", "properties": { "OBJECTID_12": 7, "OBJECTID_1": 7, "objectid": 1634.0, "الكود": "2104090030070000D0000101", "الرقم": "LG 71 29 36 81 44D0000101", "owner_تع": "وزاره الاسكان", "name_تع": "بنك الاسكان والتعمير", "addrnote_": "وزاره الاسكان", "owner_تع_1": "وزاره الاسكان", "كود_ا": "بنك الاسكان", "النشا": "بنك الاسكان", "نوع_ا": "1", "gov_name": "محافظه الجيزه", "gov_code": "21", "sec_name": "قسم الجيزه", "sec_code": "04", "ssec_name": "شياخه عزبه والى", "ssec_code": "09", "unitcode": "210409", "addr1_2016": 0.0, "addr2_2016": " ", "addr3_2016": "ش البحر الاعظم", "uniqe_code": "2104090030070000", "spatial_id": "LG 71 29 36 81 44", "source": " ", "created_us": " ", "created_da": " ", "last_edite": " ", "last_edi_1": " ", "x": 327704.2475, "y": 3319926.8657 }, "geometry": { "type": "Point", "coordinates": [ 31.213761697544182, 29.998181091378761 ] } },
{ "type": "Feature", "properties": { "OBJECTID_12": 8, "OBJECTID_1": 8, "objectid": 1661.0, "الكود": "2104040010216000A0000601", "الرقم": "LG 72 21 24 05 86A0000601", "owner_تع": "وزاره الماليه", "name_تع": "بنك مصر", "addrnote_": "بنك مصر", "owner_تع_1": "وزاره الماليه", "كود_ا": "بنك", "النشا": "بنك", "نوع_ا": "1", "gov_name": "محافظه الجيزه", "gov_code": "21", "sec_name": "قسم الجيزه", "sec_code": "04", "ssec_name": "شياخه ثانيه", "ssec_code": "04", "unitcode": "210404", "addr1_2016": 515.0, "addr2_2016": " ", "addr3_2016": "ش الاهرام", "uniqe_code": "2104040010216000", "spatial_id": "LG 72 21 24 05 86", "source": " ", "created_us": " ", "created_da": " ", "last_edite": " ", "last_edi_1": " ", "x": 327552.8019, "y": 3321771.2243 }, "geometry": { "type": "Point", "coordinates": [ 31.211893855328348, 30.014796250103576 ] } },
{ "type": "Feature", "properties": { "OBJECTID_12": 9, "OBJECTID_1": 9, "objectid": 1676.0, "الكود": "2104030040005000B0010101", "الرقم": "LG 72 23 60 82 31B0010101", "owner_تع": "البنك الاهلى المصرى", "name_تع": "البنك الاهلى", "addrnote_": "البنك الاهلى المصرى", "owner_تع_1": "البنك الاهلى المصرى", "كود_ا": "بنك", "النشا": "بنك", "نوع_ا": "1", "gov_name": "محافظه الجيزه", "gov_code": "21", "sec_name": "قسم الجيزه", "sec_code": "04", "ssec_name": "شياخه اولى", "ssec_code": "03", "unitcode": "210403", "addr1_2016": 4.0, "addr2_2016": " ", "addr3_2016": "ش بن مالك", "uniqe_code": "2104030040005000", "spatial_id": "LG 72 23 60 82 31", "source": " ", "created_us": " ", "created_da": " ", "last_edite": " ", "last_edi_1": " ", "x": 328048.646, "y": 3323330.4115 }, "geometry": { "type": "Point", "coordinates": [ 31.216781448318379, 30.028930166981837 ] } },
{ "type": "Feature", "properties": { "OBJECTID_12": 10, "OBJECTID_1": 10, "objectid": 1679.0, "الكود": "2104050080088000A0000201", "الرقم": "LG 72 10 95 63 07A0000201", "owner_تع": "بنك مصر", "name_تع": "بنك مصر", "addrnote_": "بنك مصر", "owner_تع_1": "بنك مصر", "كود_ا": "بنك مصر", "النشا": "بنك مصر", "نوع_ا": "1", "gov_name": "محافظه الجيزه", "gov_code": "21", "sec_name": "قسم الجيزه", "sec_code": "04", "ssec_name": "شياخه  ثالثه", "ssec_code": "05", "unitcode": "210405", "addr1_2016": 37.0, "addr2_2016": " ", "addr3_2016": "ش صلاح سالم", "uniqe_code": "2104050080088000", "spatial_id": "LG 72 10 95 63 07", "source": " ", "created_us": " ", "created_da": " ", "last_edite": " ", "last_edi_1": " ", "x": 327292.8738, "y": 3320855.9723 }, "geometry": { "type": "Point", "coordinates": [ 31.209348093112759, 30.006503877942141 ] } },
{ "type": "Feature", "properties": { "OBJECTID_12": 11, "OBJECTID_1": 11, "objectid": 1708.0, "الكود": "2104030040015000A0000102", "الرقم": "LG 72 22 78 82 29A0000102", "owner_تع": "البنك المصرى", "name_تع": "البنك المصرى لتنميه الصادرات", "addrnote_": "البنك المصرى لتنميه الصادرات", "owner_تع_1": "البنك المصرى لتنميه الصادرات", "كود_ا": "بنك", "النشا": "بنك", "نوع_ا": "1", "gov_name": "محافظه الجيزه", "gov_code": "21", "sec_name": "قسم الجيزه", "sec_code": "04", "ssec_name": "شياخه اولى", "ssec_code": "03", "unitcode": "210403", "addr1_2016": 6.0, "addr2_2016": " ", "addr3_2016": "ش بن رجب", "uniqe_code": "2104030040015000", "spatial_id": "LG 72 22 78 82 29", "source": " ", "created_us": " ", "created_da": " ", "last_edite": " ", "last_edi_1": " ", "x": 328144.7545, "y": 3323136.6671000002 }, "geometry": { "type": "Point", "coordinates": [ 31.217809009180002, 30.027196058586551 ] } },
{ "type": "Feature", "properties": { "OBJECTID_12": 12, "OBJECTID_1": 12, "objectid": 1718.0, "الكود": "2104050010013000A0000101", "الرقم": "LG 72 10 96 00 89A0000101", "owner_تع": "البنك الاهلى", "name_تع": "البنك الاهلى", "addrnote_": "البنك الاهلى", "owner_تع_1": "البنك الاهلى", "كود_ا": "بنك", "النشا": "بنك", "نوع_ا": "1", "gov_name": "محافظه الجيزه", "gov_code": "21", "sec_name": "قسم الجيزه", "sec_code": "04", "ssec_name": "شياخه  ثالثه", "ssec_code": "05", "unitcode": "210405", "addr1_2016": 54.0, "addr2_2016": " ", "addr3_2016": "ش صلاح سالم", "uniqe_code": "2104050010013000", "spatial_id": "LG 72 10 96 00 89", "source": " ", "created_us": " ", "created_da": " ", "last_edite": " ", "last_edi_1": " ", "x": 327241.1696, "y": 3320928.4837000002 }, "geometry": { "type": "Point", "coordinates": [ 31.208800482468128, 30.00715065069803 ] } },
{ "type": "Feature", "properties": { "OBJECTID_12": 13, "OBJECTID_1": 13, "objectid": 1727.0, "الكود": "2104030040053000A0010101", "الرقم": "LG 72 22 73 62 68A0010101", "owner_تع": "بنك كريدى سويس", "name_تع": "بنك كريدى سويس", "addrnote_": "بنك كريدى سوبس", "owner_تع_1": "بنك كريدى سويس", "كود_ا": "بنك", "النشا": "بنك", "نوع_ا": "1", "gov_name": "محافظه الجيزه", "gov_code": "21", "sec_name": "قسم الجيزه", "sec_code": "04", "ssec_name": "شياخه اولى", "ssec_code": "03", "unitcode": "210403", "addr1_2016": 7.0, "addr2_2016": " ", "addr3_2016": "ش بن شمر", "uniqe_code": "2104030040053000", "spatial_id": "LG 72 22 73 62 68", "source": " ", "created_us": " ", "created_da": " ", "last_edite": " ", "last_edi_1": " ", "x": 328122.2183, "y": 3322636.4772000001 }, "geometry": { "type": "Point", "coordinates": [ 31.217656130869983, 30.022681083389056 ] } },
{ "type": "Feature", "properties": { "OBJECTID_12": 14, "OBJECTID_1": 14, "objectid": 1741.0, "الكود": "2104030040009000A0000101", "الرقم": "LG 72 23 70 78 10A0000101", "owner_تع": "بنك جى بى مرجان", "name_تع": "بنك جى بى مورجان", "addrnote_": "بنك جى بى مورجان", "owner_تع_1": "بنك جى بى مورجان", "كود_ا": "بنك", "النشا": "بنك", "نوع_ا": "1", "gov_name": "محافظه الجيزه", "gov_code": "21", "sec_name": "قسم الجيزه", "sec_code": "04", "ssec_name": "شياخه اولى", "ssec_code": "03", "unitcode": "210403", "addr1_2016": 3.0, "addr2_2016": " ", "addr3_2016": "ش احمد نسيم", "uniqe_code": "2104030040009000", "spatial_id": "LG 72 23 70 78 10", "source": " ", "created_us": " ", "created_da": " ", "last_edite": " ", "last_edi_1": " ", "x": 328136.9565, "y": 3323387.541 }, "geometry": { "type": "Point", "coordinates": [ 31.217687677929778, 30.029457893486491 ] } },
{ "type": "Feature", "properties": { "OBJECTID_12": 15, "OBJECTID_1": 15, "objectid": 1743.0, "الكود": "2104030040042000A0000901", "الرقم": "LG 72 22 74 04 29A0000901", "owner_تع": "العربى الافريقى", "name_تع": "البنك العربى الافريقى", "addrnote_": "البنك العربى الافريقى", "owner_تع_1": "البنك العربى الافريقى", "كود_ا": "بنك", "النشا": "بنك", "نوع_ا": "1", "gov_name": "محافظه الجيزه", "gov_code": "21", "sec_name": "قسم الجيزه", "sec_code": "04", "ssec_name": "شياخه اولى", "ssec_code": "03", "unitcode": "210403", "addr1_2016": 0.0, "addr2_2016": " ", "addr3_2016": "ش الجيزه - ش شارل ديجول", "uniqe_code": "2104030040042000", "spatial_id": "LG 72 22 74 04 29", "source": " ", "created_us": " ", "created_da": " ", "last_edite": " ", "last_edi_1": " ", "x": 328059.59, "y": 3322757.408 }, "geometry": { "type": "Point", "coordinates": [ 31.216987424187696, 30.023763105367873 ] } },
{ "type": "Feature", "properties": { "OBJECTID_12": 16, "OBJECTID_1": 16, "objectid": 1752.0, "الكود": "2104050010149000D0000101", "الرقم": "LG 72 20 16 37 72D0000101", "owner_تع": "مخزن البنك", "name_تع": "بنك التنميه والائتمان الزراعى", "addrnote_": "بنك التنميه", "owner_تع_1": "بنك التنميه", "كود_ا": "بنك التنميه", "النشا": "بنك التنميه", "نوع_ا": "1", "gov_name": "محافظه الجيزه", "gov_code": "21", "sec_name": "قسم الجيزه", "sec_code": "04", "ssec_name": "شياخه  ثالثه", "ssec_code": "05", "unitcode": "210405", "addr1_2016": 6.0, "addr2_2016": " ", "addr3_2016": "ش سليمان القاضى", "uniqe_code": "2104050010149000", "spatial_id": "LG 72 20 16 37 72", "source": " ", "created_us": " ", "created_da": " ", "last_edite": " ", "last_edi_1": " ", "x": 327471.0575, "y": 3320988.0021000002 }, "geometry": { "type": "Point", "coordinates": [ 31.211173401736225, 30.007719927121833 ] } },
{ "type": "Feature", "properties": { "OBJECTID_12": 17, "OBJECTID_1": 17, "objectid": 1757.0, "الكود": "2104030040095000D0000101", "الرقم": "LG 72 22 14 24 04D0000101", "owner_تع": "بنك التعمير", "name_تع": "بنك الاسكان والتعمير", "addrnote_": "بنك التعمير", "owner_تع_1": "بنك التعمير", "كود_ا": "بنك التعمير", "النشا": "بنك التعمير", "نوع_ا": "1", "gov_name": "محافظه الجيزه", "gov_code": "21", "sec_name": "قسم الجيزه", "sec_code": "04", "ssec_name": "شياخه اولى", "ssec_code": "03", "unitcode": "210403", "addr1_2016": 0.0, "addr2_2016": " ", "addr3_2016": "ش الجامعه", "uniqe_code": "2104030040095000", "spatial_id": "LG 72 22 14 24 04", "source": " ", "created_us": " ", "created_da": " ", "last_edite": " ", "last_edi_1": " ", "x": 327477.4723, "y": 3322760.6385 }, "geometry": { "type": "Point", "coordinates": [ 31.210952828684469, 30.023710320180211 ] } },
{ "type": "Feature", "properties": { "OBJECTID_12": 18, "OBJECTID_1": 18, "objectid": 1792.0, "الكود": "2104050010078000D0000101", "الرقم": "LG 72 20 06 65 72D0000101", "owner_تع": "بنك الائتمان الزراعه", "name_تع": "بنك التنميه والائتمان الزراعى", "addrnote_": "بنك التنميه والائتمان", "owner_تع_1": "بنك التنميه", "كود_ا": "دار المحفوظات", "النشا": "دار المحفوظات", "نوع_ا": "1", "gov_name": "محافظه الجيزه", "gov_code": "21", "sec_name": "قسم الجيزه", "sec_code": "04", "ssec_name": "شياخه  ثالثه", "ssec_code": "05", "unitcode": "210405", "addr1_2016": 1.0, "addr2_2016": " ", "addr3_2016": "ش محمد ياسين", "uniqe_code": "2104050010078000", "spatial_id": "LG 72 20 06 65 72", "source": " ", "created_us": " ", "created_da": " ", "last_edite": " ", "last_edi_1": " ", "x": 327401.1027, "y": 3320969.7115000002 }, "geometry": { "type": "Point", "coordinates": [ 31.210451349230318, 30.007545084763535 ] } },
{ "type": "Feature", "properties": { "OBJECTID_12": 19, "OBJECTID_1": 19, "objectid": 1801.0, "الكود": "2104040030216000A0000301", "الرقم": "LG 72 21 70 48 48A0000301", "owner_تع": "بنك", "name_تع": "بنك باركليز", "addrnote_": "بنك باركيز", "owner_تع_1": "بنك باركيز", "كود_ا": "بنك باركليز", "النشا": "بنك باركليز", "نوع_ا": "1", "gov_name": "محافظه الجيزه", "gov_code": "21", "sec_name": "قسم الجيزه", "sec_code": "04", "ssec_name": "شياخه ثانيه", "ssec_code": "04", "unitcode": "210404", "addr1_2016": 134.0, "addr2_2016": " ", "addr3_2016": "ش البحر الاعظم", "uniqe_code": "2104040030216000", "spatial_id": "LG 72 21 70 48 48", "source": " ", "created_us": " ", "created_da": " ", "last_edite": " ", "last_edi_1": " ", "x": 328083.475, "y": 3321396.562 }, "geometry": { "type": "Point", "coordinates": [ 31.217454629501663, 30.01149135449316 ] } },
{ "type": "Feature", "properties": { "OBJECTID_12": 20, "OBJECTID_1": 20, "objectid": 1813.0, "الكود": "2104030040051000A0000101", "الرقم": "LG 72 22 73 02 95A0000101", "owner_تع": "البنك الاهلى", "name_تع": "البنك الاهلى", "addrnote_": "البنك الاهلى المصرى", "owner_تع_1": "البنك الاهلى", "كود_ا": "بنك", "النشا": "بنك", "نوع_ا": "1", "gov_name": "محافظه الجيزه", "gov_code": "21", "sec_name": "قسم الجيزه", "sec_code": "04", "ssec_name": "شياخه اولى", "ssec_code": "03", "unitcode": "210403", "addr1_2016": 3.0, "addr2_2016": " ", "addr3_2016": "ش بن شمر", "uniqe_code": "2104030040051000", "spatial_id": "LG 72 22 73 02 95", "source": " ", "created_us": " ", "created_da": " ", "last_edite": " ", "last_edi_1": " ", "x": 328065.383, "y": 3322634.2036000001 }, "geometry": { "type": "Point", "coordinates": [ 31.217067363907766, 30.022652591745189 ] } },
{ "type": "Feature", "properties": { "OBJECTID_12": 21, "OBJECTID_1": 21, "objectid": 1816.0, "الكود": "2104030040141000A0000101", "الرقم": "LG 72 11 84 80 31A0000101", "owner_تع": "بنك ابو ظبى الاسلامى", "name_تع": "بنك ابوظبى الااسلامى", "addrnote_": "بنك ابوظبى الاسلام", "owner_تع_1": "بنك ابوظبى الاسلامى", "كود_ا": "بنك", "النشا": "بنك", "نوع_ا": "1", "gov_name": "محافظه الجيزه", "gov_code": "21", "sec_name": "قسم الجيزه", "sec_code": "04", "ssec_name": "شياخه اولى", "ssec_code": "03", "unitcode": "210403", "addr1_2016": 15.0, "addr2_2016": " ", "addr3_2016": "ش الصاروخ", "uniqe_code": "2104030040141000", "spatial_id": "LG 72 11 84 80 31", "source": " ", "created_us": " ", "created_da": " ", "last_edite": " ", "last_edi_1": " ", "x": 327227.4899, "y": 3321721.0894 }, "geometry": { "type": "Point", "coordinates": [ 31.208530200208966, 30.014298157986815 ] } },
{ "type": "Feature", "properties": { "OBJECTID_12": 22, "OBJECTID_1": 22, "objectid": 1817.0, "الكود": "2104050040185000A0000101", "الرقم": "LG 72 20 76 74 89A0000101", "owner_تع": "بنك المؤسسه العربيه", "name_تع": "بنك المؤسسه العربيه المصرفيه", "addrnote_": "بنك المؤسسه العربيه المصرفيه", "owner_تع_1": "بنك المؤسسه العربيه", "كود_ا": "بنك", "النشا": "بنك", "نوع_ا": "1", "gov_name": "محافظه الجيزه", "gov_code": "21", "sec_name": "قسم الجيزه", "sec_code": "04", "ssec_name": "شياخه  ثالثه", "ssec_code": "05", "unitcode": "210405", "addr1_2016": 96.0, "addr2_2016": " ", "addr3_2016": "ش البحر الاعظم", "uniqe_code": "2104050040185000", "spatial_id": "LG 72 20 76 74 89", "source": " ", "created_us": " ", "created_da": " ", "last_edite": " ", "last_edi_1": " ", "x": 328111.9427, "y": 3320956.7254 }, "geometry": { "type": "Point", "coordinates": [ 31.217820624338042, 30.007527930273742 ] } },
{ "type": "Feature", "properties": { "OBJECTID_12": 23, "OBJECTID_1": 23, "objectid": 1829.0, "الكود": "2104050020162000A0000201", "الرقم": "LG 72 20 38 85 38A0000201", "owner_تع": "بنك الاهلى", "name_تع": "البنك الاهلى", "addrnote_": "البنك الاهلى", "owner_تع_1": "البنك الاهلى", "كود_ا": "كباين صرف", "النشا": "كباين صرف", "نوع_ا": "1", "gov_name": "محافظه الجيزه", "gov_code": "21", "sec_name": "قسم الجيزه", "sec_code": "04", "ssec_name": "شياخه  ثالثه", "ssec_code": "05", "unitcode": "210405", "addr1_2016": 25.0, "addr2_2016": " ", "addr3_2016": "ح المولد", "uniqe_code": "2104050020162000", "spatial_id": "LG 72 20 38 85 38", "source": " ", "created_us": " ", "created_da": " ", "last_edite": " ", "last_edi_1": " ", "x": 327720.0837, "y": 3321170.6907000002 }, "geometry": { "type": "Point", "coordinates": [ 31.213724790906731, 30.009402873920781 ] } },
{ "type": "Feature", "properties": { "OBJECTID_12": 24, "OBJECTID_1": 24, "objectid": 1831.0, "الكود": "2104030040112000A0001201", "الرقم": "LG 72 11 65 53 73A0001201", "owner_تع": "طب بيطرى", "name_تع": "البنك الاهلى", "addrnote_": "البنك الاعلى المصرى", "owner_تع_1": "الطب البيطرى", "كود_ا": "الماليات", "النشا": "الماليات", "نوع_ا": "1", "gov_name": "محافظه الجيزه", "gov_code": "21", "sec_name": "قسم الجيزه", "sec_code": "04", "ssec_name": "شياخه اولى", "ssec_code": "03", "unitcode": "210403", "addr1_2016": 0.0, "addr2_2016": " ", "addr3_2016": "ش الصاروخ", "uniqe_code": "2104030040112000", "spatial_id": "LG 72 11 65 53 73", "source": " ", "created_us": " ", "created_da": " ", "last_edite": " ", "last_edi_1": " ", "x": 326938.3756, "y": 3321790.9581 }, "geometry": { "type": "Point", "coordinates": [ 31.205522267113494, 30.014887548855175 ] } },
{ "type": "Feature", "properties": { "OBJECTID_12": 25, "OBJECTID_1": 25, "objectid": 1836.0, "الكود": "2104050010073000D0000101", "الرقم": "LG 72 10 96 82 99D0000101", "owner_تع": "بنك الائتمان الزرعى", "name_تع": "بنك التنميه والائتمان الزراعى", "addrnote_": "بنك التنميه", "owner_تع_1": "بنك التنميه", "كود_ا": "بنك التنميه", "النشا": "بنك التنميه", "نوع_ا": "1", "gov_name": "محافظه الجيزه", "gov_code": "21", "sec_name": "قسم الجيزه", "sec_code": "04", "ssec_name": "شياخه  ثالثه", "ssec_code": "05", "unitcode": "210405", "addr1_2016": 4.0, "addr2_2016": " ", "addr3_2016": "ش سليمان القاضى", "uniqe_code": "2104050010073000", "spatial_id": "LG 72 10 96 82 99", "source": " ", "created_us": " ", "created_da": " ", "last_edite": " ", "last_edi_1": " ", "x": 327322.5108, "y": 3320947.1047 }, "geometry": { "type": "Point", "coordinates": [ 31.209640483834807, 30.007330087779422 ] } },
{ "type": "Feature", "properties": { "OBJECTID_12": 26, "OBJECTID_1": 26, "objectid": 1838.0, "الكود": "2104040010235000A0000101", "الرقم": "LG 72 21 14 44 32A0000101", "owner_تع": "بنك مصر", "name_تع": "بنك مصر", "addrnote_": "بنك مصر", "owner_تع_1": "وزاره الماليه", "كود_ا": "بنك", "النشا": "بنك", "نوع_ا": "1", "gov_name": "محافظه الجيزه", "gov_code": "21", "sec_name": "قسم الجيزه", "sec_code": "04", "ssec_name": "شياخه ثانيه", "ssec_code": "04", "unitcode": "210404", "addr1_2016": 511.0, "addr2_2016": " ", "addr3_2016": "ش الاهرام", "uniqe_code": "2104040010235000", "spatial_id": "LG 72 21 14 44 32", "source": " ", "created_us": " ", "created_da": " ", "last_edite": " ", "last_edi_1": " ", "x": 327487.8477, "y": 3321758.0995999998 }, "geometry": { "type": "Point", "coordinates": [ 31.211222744301331, 30.014668711721473 ] } },
{ "type": "Feature", "properties": { "OBJECTID_12": 27, "OBJECTID_1": 27, "objectid": 1850.0, "الكود": "2104030010079000A0000101", "الرقم": "LG 72 23 71 72 21A0000101", "owner_تع": "البنك الخليجى", "name_تع": "بنك المصرى الخليجى", "addrnote_": "البنك المصرى الخليجى", "owner_تع_1": "غير معروف", "كود_ا": "بنك خليجى", "النشا": "بنك خليجى", "نوع_ا": "1", "gov_name": "محافظه الجيزه", "gov_code": "21", "sec_name": "قسم الجيزه", "sec_code": "04", "ssec_name": "شياخه اولى", "ssec_code": "03", "unitcode": "210403", "addr1_2016": 10.0, "addr2_2016": " ", "addr3_2016": "ش احمد نسيم", "uniqe_code": "2104030010079000", "spatial_id": "LG 72 23 71 72 21", "source": " ", "created_us": " ", "created_da": " ", "last_edite": " ", "last_edi_1": " ", "x": 328138.8509, "y": 3323428.9545999998 }, "geometry": { "type": "Point", "coordinates": [ 31.217700630532182, 30.029831718033712 ] } },
{ "type": "Feature", "properties": { "OBJECTID_12": 28, "OBJECTID_1": 28, "objectid": 1860.0, "الكود": "2104030030024000A0000901", "الرقم": "LG 72 21 26 89 65A0000901", "owner_تع": "البنك الاهلى", "name_تع": "البنك الاهلى", "addrnote_": "البنك الاهلى", "owner_تع_1": "البنك الاهلى", "كود_ا": "بنك", "النشا": "بنك", "نوع_ا": "1", "gov_name": "محافظه الجيزه", "gov_code": "21", "sec_name": "قسم الجيزه", "sec_code": "04", "ssec_name": "شياخه اولى", "ssec_code": "03", "unitcode": "210403", "addr1_2016": 11.0, "addr2_2016": " ", "addr3_2016": "ش الغرفه التجاريه", "uniqe_code": "2104030030024000", "spatial_id": "LG 72 21 26 89 65", "source": " ", "created_us": " ", "created_da": " ", "last_edite": " ", "last_edi_1": " ", "x": 327634.3127, "y": 3322009.6741 }, "geometry": { "type": "Point", "coordinates": [ 31.212700118299363, 30.016958589750526 ] } },
{ "type": "Feature", "properties": { "OBJECTID_12": 29, "OBJECTID_1": 29, "objectid": 1867.0, "الكود": " ", "الرقم": " ", "owner_تع": " ", "name_تع": "بنك مصر", "addrnote_": " ", "owner_تع_1": " ", "كود_ا": " ", "النشا": " ", "نوع_ا": " ", "gov_name": "محافظه الجيزه", "gov_code": "21", "sec_name": "قسم الجيزه", "sec_code": "04", "ssec_name": "شياخه ثانيه", "ssec_code": "04", "unitcode": "210404", "addr1_2016": 138.0, "addr2_2016": " ", "addr3_2016": "ش البحر الاعظم", "uniqe_code": "2104040030097000", "spatial_id": "LG 72 21 71 34 65", "source": " ", "created_us": " ", "created_da": " ", "last_edite": " ", "last_edi_1": " ", "x": 328076.2247, "y": 3321453.7519 }, "geometry": { "type": "Point", "coordinates": [ 31.217370256741486, 30.012006201405516 ] } },
{ "type": "Feature", "properties": { "OBJECTID_12": 30, "OBJECTID_1": 30, "objectid": 1873.0, "الكود": "2104040010005000A0000101", "الرقم": "LG 72 21 72 07 87A0000101", "owner_تع": "بنك الاهلى", "name_تع": "البنك الاهلى", "addrnote_": "بنك الاهلى", "owner_تع_1": "حكومى", "كود_ا": "بنك الاهلى", "النشا": "بنك الاهلى", "نوع_ا": "1", "gov_name": "محافظه الجيزه", "gov_code": "21", "sec_name": "قسم الجيزه", "sec_code": "04", "ssec_name": "شياخه ثانيه", "ssec_code": "04", "unitcode": "210404", "addr1_2016": 174.0, "addr2_2016": " ", "addr3_2016": "ش شهداء 25 يناير", "uniqe_code": "2104040010005000", "spatial_id": "LG 72 21 72 07 87", "source": " ", "created_us": " ", "created_da": " ", "last_edite": " ", "last_edi_1": " ", "x": 328050.2705, "y": 3321585.9092000001 }, "geometry": { "type": "Point", "coordinates": [ 31.217079926921983, 30.013194643028889 ] } },
{ "type": "Feature", "properties": { "OBJECTID_12": 31, "OBJECTID_1": 31, "objectid": 1875.0, "الكود": "2104030030106000A0000401", "الرقم": "LG 72 21 49 94 80A0000401", "owner_تع": "البنك القطرى", "name_تع": "البنك الاهلى القطرى", "addrnote_": "البنك القطرى", "owner_تع_1": "قطر", "كود_ا": "بنك", "النشا": "بنك", "نوع_ا": "1", "gov_name": "محافظه الجيزه", "gov_code": "21", "sec_name": "قسم الجيزه", "sec_code": "04", "ssec_name": "شياخه اولى", "ssec_code": "03", "unitcode": "210403", "addr1_2016": 24.0, "addr2_2016": " ", "addr3_2016": "ش مراد", "uniqe_code": "2104030030106000", "spatial_id": "LG 72 21 49 94 80", "source": " ", "created_us": " ", "created_da": " ", "last_edite": " ", "last_edi_1": " ", "x": 327849.2226, "y": 3322251.0628999998 }, "geometry": { "type": "Point", "coordinates": [ 31.214888653902317, 30.019166204596662 ] } },
{ "type": "Feature", "properties": { "OBJECTID_12": 32, "OBJECTID_1": 32, "objectid": 1876.0, "الكود": "2104030010022000A0000201", "الرقم": "LG 72 21 69 07 67A0000201", "owner_تع": "بنك حكومى", "name_تع": "بنك قناه السويس", "addrnote_": "بنك قناه السويس", "owner_تع_1": "بنك حكومى", "كود_ا": "بنك", "النشا": "بنك", "نوع_ا": "1", "gov_name": "محافظه الجيزه", "gov_code": "21", "sec_name": "قسم الجيزه", "sec_code": "04", "ssec_name": "شياخه اولى", "ssec_code": "03", "unitcode": "210403", "addr1_2016": 27.0, "addr2_2016": " ", "addr3_2016": "ش مراد", "uniqe_code": "2104030010022000", "spatial_id": "LG 72 21 69 07 67", "source": " ", "created_us": " ", "created_da": " ", "last_edite": " ", "last_edi_1": " ", "x": 327958.0266, "y": 3322287.339 }, "geometry": { "type": "Point", "coordinates": [ 31.216010576538476, 30.01950871986822 ] } },
{ "type": "Feature", "properties": { "OBJECTID_12": 33, "OBJECTID_1": 33, "objectid": 1912.0, "الكود": "2104030020001000A0000201", "الرقم": "LG 72 21 35 12 37A0000201", "owner_تع": "قطاع عام", "name_تع": "بنك القاهره", "addrnote_": "بنك القاهره", "owner_تع_1": "قطاع عام", "كود_ا": "بنك", "النشا": "بنك", "نوع_ا": "1", "gov_name": "محافظه الجيزه", "gov_code": "21", "sec_name": "قسم الجيزه", "sec_code": "04", "ssec_name": "شياخه اولى", "ssec_code": "03", "unitcode": "210403", "addr1_2016": 1.0, "addr2_2016": " ", "addr3_2016": "ش مراد", "uniqe_code": "2104030020001000", "spatial_id": "LG 72 21 35 12 37", "source": " ", "created_us": " ", "created_da": " ", "last_edite": " ", "last_edi_1": " ", "x": 327659.1034, "y": 3321840.7543000001 }, "geometry": { "type": "Point", "coordinates": [ 31.212984400622506, 30.01543839272189 ] } },
{ "type": "Feature", "properties": { "OBJECTID_12": 34, "OBJECTID_1": 34, "objectid": 1922.0, "الكود": "2104030030087000A0000101", "الرقم": "LG 72 22 50 53 52A0000101", "owner_تع": "البنك", "name_تع": "البنك الاهلى الكويتى", "addrnote_": "البنك الاهلى الكويتى", "owner_تع_1": "طلال", "كود_ا": "بنك الاهلى الكويتى", "النشا": "بنك الاهلى الكويتى", "نوع_ا": "1", "gov_name": "محافظه الجيزه", "gov_code": "21", "sec_name": "قسم الجيزه", "sec_code": "04", "ssec_name": "شياخه اولى", "ssec_code": "03", "unitcode": "210403", "addr1_2016": 32.0, "addr2_2016": "ب", "addr3_2016": "ش مراد", "uniqe_code": "2104030030087000", "spatial_id": "LG 72 22 50 53 52", "source": " ", "created_us": " ", "created_da": " ", "last_edite": " ", "last_edi_1": " ", "x": 327907.3082, "y": 3322342.5472 }, "geometry": { "type": "Point", "coordinates": [ 31.215475945450351, 30.019999578450768 ] } },
{ "type": "Feature", "properties": { "OBJECTID_12": 35, "OBJECTID_1": 35, "objectid": 1939.0, "الكود": "2104030030002000A0000101", "الرقم": "LG 72 21 25 77 03A0000101", "owner_تع": "البنك الاهلى", "name_تع": "البنك الاهلى", "addrnote_": "البنك الاهلى", "owner_تع_1": "عدم الادلاء", "كود_ا": "بنك", "النشا": "بنك", "نوع_ا": "1", "gov_name": "محافظه الجيزه", "gov_code": "21", "sec_name": "قسم الجيزه", "sec_code": "04", "ssec_name": "شياخه اولى", "ssec_code": "03", "unitcode": "210403", "addr1_2016": 3.0, "addr2_2016": " ", "addr3_2016": "ش جامعه القاهره", "uniqe_code": "2104030030002000", "spatial_id": " ", "source": " ", "created_us": " ", "created_da": " ", "last_edite": " ", "last_edi_1": " ", "x": 327616.0629, "y": 3321887.2097999998 }, "geometry": { "type": "Point", "coordinates": [ 31.212530775194057, 30.015851369832923 ] } },
{ "type": "Feature", "properties": { "OBJECTID_12": 36, "OBJECTID_1": 36, "objectid": 1944.0, "الكود": "2104050010075000D0000101", "الرقم": "LG 72 10 96 64 57D0000101", "owner_تع": "بنك الائتمان الوراعى", "name_تع": "بنك التنميه والائتمان الزراعى", "addrnote_": "بنك الائتمان", "owner_تع_1": "بنك التنميه", "كود_ا": "بنك", "النشا": "بنك", "نوع_ا": "1", "gov_name": "محافظه الجيزه", "gov_code": "21", "sec_name": "قسم الجيزه", "sec_code": "04", "ssec_name": "شياخه  ثالثه", "ssec_code": "05", "unitcode": "210405", "addr1_2016": 47.0, "addr2_2016": " ", "addr3_2016": "ش صلاح سالم", "uniqe_code": "2104050010075000", "spatial_id": "LG 72 10 96 64 57", "source": " ", "created_us": " ", "created_da": " ", "last_edite": " ", "last_edi_1": " ", "x": 327299.6108, "y": 3320965.2487 }, "geometry": { "type": "Point", "coordinates": [ 31.209400208346992, 30.00749052059302 ] } },
{ "type": "Feature", "properties": { "OBJECTID_12": 37, "OBJECTID_1": 37, "objectid": 1987.0, "الكود": " ", "الرقم": " ", "owner_تع": " ", "name_تع": "بنك ناصر الاجتماعى", "addrnote_": " ", "owner_تع_1": " ", "كود_ا": " ", "النشا": " ", "نوع_ا": " ", "gov_name": "محافظه الجيزه", "gov_code": "21", "sec_name": "قسم الجيزه", "sec_code": "04", "ssec_name": "شياخه رابعه", "ssec_code": "06", "unitcode": "210406", "addr1_2016": 10.0, "addr2_2016": " ", "addr3_2016": "ش صلاح سالم", "uniqe_code": "2104060040030000", "spatial_id": "LG 71 19 99 27 61", "source": " ", "created_us": " ", "created_da": " ", "last_edite": " ", "last_edi_1": " ", "x": 327251.7453, "y": 3320290.4962 }, "geometry": { "type": "Point", "coordinates": [ 31.209013478467764, 30.001397380861253 ] } },
{ "type": "Feature", "properties": { "OBJECTID_12": 38, "OBJECTID_1": 38, "objectid": 1988.0, "الكود": " ", "الرقم": " ", "owner_تع": " ", "name_تع": "بنك سكوشيا", "addrnote_": " ", "owner_تع_1": " ", "كود_ا": " ", "النشا": " ", "نوع_ا": " ", "gov_name": "محافظه الجيزه", "gov_code": "21", "sec_name": "قسم الجيزه", "sec_code": "04", "ssec_name": "شياخه اولى", "ssec_code": "03", "unitcode": "210403", "addr1_2016": 3.0, "addr2_2016": " ", "addr3_2016": "ش بن رحب", "uniqe_code": "2104030040027000", "spatial_id": "LG 72 22 77 49 94", "source": " ", "created_us": " ", "created_da": " ", "last_edite": " ", "last_edi_1": " ", "x": 328111.3362, "y": 3323102.3498 }, "geometry": { "type": "Point", "coordinates": [ 31.217468131502716, 30.026881816021803 ] } },
{ "type": "Feature", "properties": { "OBJECTID_12": 39, "OBJECTID_1": 39, "objectid": 2009.0, "الكود": " ", "الرقم": " ", "owner_تع": " ", "name_تع": "المصرف المتحد", "addrnote_": " ", "owner_تع_1": " ", "كود_ا": " ", "النشا": " ", "نوع_ا": " ", "gov_name": "محافظه الجيزه", "gov_code": "21", "sec_name": "قسم الجيزه", "sec_code": "04", "ssec_name": "شياخه اولى", "ssec_code": "03", "unitcode": "210403", "addr1_2016": 32.0, "addr2_2016": "ا", "addr3_2016": "ش مراد", "uniqe_code": "2104030030088000", "spatial_id": "LG 72 22 50 52 14", "source": " ", "created_us": " ", "created_da": " ", "last_edite": " ", "last_edi_1": " ", "x": 327903.1285, "y": 3322334.8646999998 }, "geometry": { "type": "Point", "coordinates": [ 31.215433862693917, 30.019929693162933 ] } }
]
}
