{
"type": "FeatureCollection",
"name": "busstation",
"crs": { "type": "name", "properties": { "name": "urn:ogc:def:crs:OGC:1.3:CRS84" } },
"features": [
{ "type": "Feature", "properties": { "full_id": "n5070576421", "osm_id": "5070576421", "osm_type": "node", "amenity": "bus_station", "addr_stree": "البحر الاعظم", "addr_city": "giza", "name_en": null, "name_ar": "موقف المنيب الصعيد", "name": "موقف المنيب الصعيد", "public_tra": "station", "bus": "yes", "id": null, "descriptio": null, "tessellate": null, "extrude": null, "visibility": null, "placepageU": null, "layer": "amenity_bus_station_giza", "path": "Point?crs=EPSG:4326&field=full_id:string(0,0)&field=osm_id:string(0,0)&field=osm_type:string(0,0)&field=amenity:string(0,0)&field=network:string(0,0)&field=addr%3Astreet:string(0,0)&field=addr%3Acity:string(0,0)&field=payment%3Acash:string(0,0)&field=mot" }, "geometry": { "type": "Point", "coordinates": [ 31.2139372, 29.9864037, 0.0 ] } },
{ "type": "Feature", "properties": { "full_id": "n5394515621", "osm_id": "5394515621", "osm_type": "node", "amenity": "bus_station", "addr_stree": "15 شارع مراد", "addr_city": "giza", "name_en": "Go Bus Giza Station", "name_ar": null, "name": null, "public_tra": "station", "bus": "yes", "id": null, "descriptio": null, "tessellate": null, "extrude": null, "visibility": null, "placepageU": null, "layer": "amenity_bus_station_giza", "path": "Point?crs=EPSG:4326&field=full_id:string(0,0)&field=osm_id:string(0,0)&field=osm_type:string(0,0)&field=amenity:string(0,0)&field=network:string(0,0)&field=addr%3Astreet:string(0,0)&field=addr%3Acity:string(0,0)&field=payment%3Acash:string(0,0)&field=mot" }, "geometry": { "type": "Point", "coordinates": [ 31.216042043181503, 30.018605951564503, 0.0 ] } },
{ "type": "Feature", "properties": { "full_id": "n7034033785", "osm_id": "7034033785", "osm_type": "node", "amenity": "bus_station", "addr_stree": "ميدان النهضه", "addr_city": "giza", "name_en": "Nahda Square", "name_ar": null, "name": null, "public_tra": "station", "bus": "yes", "id": null, "descriptio": null, "tessellate": null, "extrude": null, "visibility": null, "placepageU": null, "layer": "amenity_bus_station_giza", "path": "Point?crs=EPSG:4326&field=full_id:string(0,0)&field=osm_id:string(0,0)&field=osm_type:string(0,0)&field=amenity:string(0,0)&field=network:string(0,0)&field=addr%3Astreet:string(0,0)&field=addr%3Acity:string(0,0)&field=payment%3Acash:string(0,0)&field=mot" }, "geometry": { "type": "Point", "coordinates": [ 31.2163408, 30.0282173, 0.0 ] } },
{ "type": "Feature", "properties": { "full_id": "n9788704498", "osm_id": "9788704498", "osm_type": "node", "amenity": "bus_station", "addr_stree": "شارع مراد", "addr_city": "giza", "name_en": null, "name_ar": null, "name": "شركة النقل العربى (سوبر جيت)", "public_tra": "station", "bus": "yes", "id": null, "descriptio": null, "tessellate": null, "extrude": null, "visibility": null, "placepageU": null, "layer": "amenity_bus_station_giza", "path": "Point?crs=EPSG:4326&field=full_id:string(0,0)&field=osm_id:string(0,0)&field=osm_type:string(0,0)&field=amenity:string(0,0)&field=network:string(0,0)&field=addr%3Astreet:string(0,0)&field=addr%3Acity:string(0,0)&field=payment%3Acash:string(0,0)&field=mot" }, "geometry": { "type": "Point", "coordinates": [ 31.212864081824801, 30.016956783359614, 0.0 ] } },
{ "type": "Feature", "properties": { "full_id": "n13326437802", "osm_id": "13326437802", "osm_type": "node", "amenity": "bus_station", "addr_stree": "شارع مراد", "addr_city": "giza", "name_en": null, "name_ar": null, "name": "minibus to Ayyat", "public_tra": null, "bus": null, "id": null, "descriptio": null, "tessellate": null, "extrude": null, "visibility": null, "placepageU": null, "layer": "amenity_bus_station_giza", "path": "Point?crs=EPSG:4326&field=full_id:string(0,0)&field=osm_id:string(0,0)&field=osm_type:string(0,0)&field=amenity:string(0,0)&field=network:string(0,0)&field=addr%3Astreet:string(0,0)&field=addr%3Acity:string(0,0)&field=payment%3Acash:string(0,0)&field=mot" }, "geometry": { "type": "Point", "coordinates": [ 31.2099634, 29.9865588, 0.0 ] } },
{ "type": "Feature", "properties": { "full_id": "n13665150701", "osm_id": "13665150701", "osm_type": "node", "amenity": "bus_station", "addr_stree": "ميدان الجيزه", "addr_city": "giza", "name_en": null, "name_ar": null, "name": "Giza train station", "public_tra": "station", "bus": "yes", "id": null, "descriptio": null, "tessellate": null, "extrude": null, "visibility": null, "placepageU": null, "layer": "amenity_bus_station_giza", "path": "Point?crs=EPSG:4326&field=full_id:string(0,0)&field=osm_id:string(0,0)&field=osm_type:string(0,0)&field=amenity:string(0,0)&field=network:string(0,0)&field=addr%3Astreet:string(0,0)&field=addr%3Acity:string(0,0)&field=payment%3Acash:string(0,0)&field=mot" }, "geometry": { "type": "Point", "coordinates": [ 31.208, 30.0092473, 0.0 ] } },
{ "type": "Feature", "properties": { "full_id": null, "osm_id": null, "osm_type": "node", "amenity": "bus_station", "addr_stree": "شارع مراد", "addr_city": "giza", "name_en": null, "name_ar": null, "name": "Giza Square Station", "public_tra": null, "bus": null, "id": "1.5.1", "descriptio": "<!DOCTYPE html><html><head></head><body><script type=\"text/javascript\">window.location.href=\"https://www.google.com/earth/rpc/entity?lat=29.9971&lng=31.221900000000005&fid=0x145846e12f949d79:0x6bef97028d77e96a&hl=en&gl=eg&client=earth-client&cv=7.3.7.115", "tessellate": "-1", "extrude": "0", "visibility": "-1", "placepageU": "https://www.google.com/earth/rpc/entity?lat=29.9971&lng=31.221900000000005&fid=0x145846e12f949d79:0x6bef97028d77e96a&hl=en&gl=eg&client=earth-client&cv=7.3.7.1155&useragent=GoogleEarth/7.3.7.1155(Windows;Microsoft Windows (6.2.9200.0);en;kml:2.2;client:P", "layer": "station giza", "path": "D:\\Q\\newww\\station giza.kmz|layername=station giza|geometrytype=Point25D|uniqueGeometryType=yes" }, "geometry": { "type": "Point", "coordinates": [ 31.21177, 30.01566, 0.0 ] } },
{ "type": "Feature", "properties": { "full_id": null, "osm_id": null, "osm_type": "node", "amenity": "bus_station", "addr_stree": "شارع مراد", "addr_city": "giza", "name_en": null, "name_ar": null, "name": "EL Monieb Bus Station", "public_tra": null, "bus": null, "id": "1.6.1", "descriptio": "<!DOCTYPE html><html><head></head><body><script type=\"text/javascript\">window.location.href=\"https://www.google.com/earth/rpc/entity?lat=29.9971&lng=31.221900000000005&fid=0x1458465282360a11:0xf2b3e3afe8fe55e8&hl=en&gl=eg&client=earth-client&cv=7.3.7.115", "tessellate": "-1", "extrude": "0", "visibility": "-1", "placepageU": "https://www.google.com/earth/rpc/entity?lat=29.9971&lng=31.221900000000005&fid=0x1458465282360a11:0xf2b3e3afe8fe55e8&hl=en&gl=eg&client=earth-client&cv=7.3.7.1155&useragent=GoogleEarth/7.3.7.1155(Windows;Microsoft Windows (6.2.9200.0);en;kml:2.2;client:P", "layer": "station giza", "path": "D:\\Q\\newww\\station giza.kmz|layername=station giza|geometrytype=Point25D|uniqueGeometryType=yes" }, "geometry": { "type": "Point", "coordinates": [ 31.215614034917962, 29.987406084330495, 0.0 ] } },
{ "type": "Feature", "properties": { "full_id": null, "osm_id": null, "osm_type": "node", "amenity": "bus_station", "addr_stree": "المراد", "addr_city": "giza", "name_en": null, "name_ar": null, "name": "محطه بلو الجيزه شارع مراد Blue bus", "public_tra": null, "bus": null, "id": "1.4.1", "descriptio": "<!DOCTYPE html><html><head></head><body><script type=\"text/javascript\">window.location.href=\"https://www.google.com/earth/rpc/entity?lat=29.9971&lng=31.221900000000005&fid=0x145847df1173602b:0x70758b7d25751817&hl=en&gl=eg&client=earth-client&cv=7.3.7.115", "tessellate": "-1", "extrude": "0", "visibility": "-1", "placepageU": "https://www.google.com/earth/rpc/entity?lat=29.9971&lng=31.221900000000005&fid=0x145847df1173602b:0x70758b7d25751817&hl=en&gl=eg&client=earth-client&cv=7.3.7.1155&useragent=GoogleEarth/7.3.7.1155(Windows;Microsoft Windows (6.2.9200.0);en;kml:2.2;client:P", "layer": "station giza", "path": "D:\\Q\\newww\\station giza.kmz|layername=station giza|geometrytype=Point25D|uniqueGeometryType=yes" }, "geometry": { "type": "Point", "coordinates": [ 31.214597515292091, 30.0189487527484, 0.0 ] } },
{ "type": "Feature", "properties": { "full_id": null, "osm_id": null, "osm_type": "node", "amenity": "bus_station", "addr_stree": "ميدانا الجيزه", "addr_city": "giza", "name_en": null, "name_ar": null, "name": "Giza Square", "public_tra": null, "bus": null, "id": "1.7.1", "descriptio": "<!DOCTYPE html><html><head></head><body><script type=\"text/javascript\">window.location.href=\"https://www.google.com/earth/rpc/entity?lat=29.9971&lng=31.221900000000005&fid=0x145846e6a1e7e0c1:0xdc0b6ccfa336716f&hl=en&gl=eg&client=earth-client&cv=7.3.7.115", "tessellate": "-1", "extrude": "0", "visibility": "-1", "placepageU": "https://www.google.com/earth/rpc/entity?lat=29.9971&lng=31.221900000000005&fid=0x145846e6a1e7e0c1:0xdc0b6ccfa336716f&hl=en&gl=eg&client=earth-client&cv=7.3.7.1155&useragent=GoogleEarth/7.3.7.1155(Windows;Microsoft Windows (6.2.9200.0);en;kml:2.2;client:P", "layer": "station giza", "path": "D:\\Q\\newww\\station giza.kmz|layername=station giza|geometrytype=Point25D|uniqueGeometryType=yes" }, "geometry": { "type": "Point", "coordinates": [ 31.209661, 30.0145, 0.0 ] } },
{ "type": "Feature", "properties": { "full_id": null, "osm_id": null, "osm_type": "node", "amenity": "bus_station", "addr_stree": "المراد", "addr_city": "giza", "name_en": null, "name_ar": null, "name": "On Time Bus Giza", "public_tra": null, "bus": null, "id": "1.8.1", "descriptio": "<!DOCTYPE html><html><head></head><body><script type=\"text/javascript\">window.location.href=\"https://www.google.com/earth/rpc/entity?lat=29.9971&lng=31.221900000000005&fid=0x145846dfd637c605:0x6520b7e2f3317d9c&hl=en&gl=eg&client=earth-client&cv=7.3.7.115", "tessellate": "-1", "extrude": "0", "visibility": "-1", "placepageU": "https://www.google.com/earth/rpc/entity?lat=29.9971&lng=31.221900000000005&fid=0x145846dfd637c605:0x6520b7e2f3317d9c&hl=en&gl=eg&client=earth-client&cv=7.3.7.1155&useragent=GoogleEarth/7.3.7.1155(Windows;Microsoft Windows (6.2.9200.0);en;kml:2.2;client:P", "layer": "station giza", "path": "D:\\Q\\newww\\station giza.kmz|layername=station giza|geometrytype=Point25D|uniqueGeometryType=yes" }, "geometry": { "type": "Point", "coordinates": [ 31.213859201037501, 30.01842991806361, 0.0 ] } },
{ "type": "Feature", "properties": { "full_id": null, "osm_id": null, "osm_type": "node", "amenity": "bus_station", "addr_stree": "مراد", "addr_city": "giza", "name_en": null, "name_ar": null, "name": "Giza Mourad Bus Station", "public_tra": null, "bus": null, "id": "1.9.1", "descriptio": "<!DOCTYPE html><html><head></head><body><script type=\"text/javascript\">window.location.href=\"https://www.google.com/earth/rpc/entity?lat=29.9971&lng=31.221900000000005&fid=0x145846e077845635:0x3040a6ecbcb9e231&hl=en&gl=eg&client=earth-client&cv=7.3.7.115", "tessellate": "-1", "extrude": "0", "visibility": "-1", "placepageU": "https://www.google.com/earth/rpc/entity?lat=29.9971&lng=31.221900000000005&fid=0x145846e077845635:0x3040a6ecbcb9e231&hl=en&gl=eg&client=earth-client&cv=7.3.7.1155&useragent=GoogleEarth/7.3.7.1155(Windows;Microsoft Windows (6.2.9200.0);en;kml:2.2;client:P", "layer": "station giza", "path": "D:\\Q\\newww\\station giza.kmz|layername=station giza|geometrytype=Point25D|uniqueGeometryType=yes" }, "geometry": { "type": "Point", "coordinates": [ 31.216063443594681, 30.017494155786977, 0.0 ] } },
{ "type": "Feature", "properties": { "full_id": null, "osm_id": null, "osm_type": "node", "amenity": "metro", "addr_stree": null, "addr_city": "giza", "name_en": null, "name_ar": null, "name": "Giza Metro", "public_tra": null, "bus": null, "id": "1.11.1", "descriptio": "<!DOCTYPE html><html><head></head><body><script type=\"text/javascript\">window.location.href=\"https://www.google.com/earth/rpc/entity?lat=29.9971&lng=31.221900000000005&fid=0x145846e5ee68fe97:0x1841b8be4c2d9983&hl=en&gl=eg&client=earth-client&cv=7.3.7.115", "tessellate": "-1", "extrude": "0", "visibility": "-1", "placepageU": "https://www.google.com/earth/rpc/entity?lat=29.9971&lng=31.221900000000005&fid=0x145846e5ee68fe97:0x1841b8be4c2d9983&hl=en&gl=eg&client=earth-client&cv=7.3.7.1155&useragent=GoogleEarth/7.3.7.1155(Windows;Microsoft Windows (6.2.9200.0);en;kml:2.2;client:P", "layer": "station giza", "path": "D:\\Q\\newww\\station giza.kmz|layername=station giza|geometrytype=Point25D|uniqueGeometryType=yes" }, "geometry": { "type": "Point", "coordinates": [ 31.206219, 30.01407, 0.0 ] } },
{ "type": "Feature", "properties": { "full_id": null, "osm_id": null, "osm_type": "node", "amenity": "bus_station", "addr_stree": null, "addr_city": "giza", "name_en": null, "name_ar": null, "name": "Giza Station", "public_tra": null, "bus": null, "id": "1.3.1", "descriptio": "<!DOCTYPE html><html><head></head><body><script type=\"text/javascript\">window.location.href=\"https://www.google.com/earth/rpc/entity?lat=29.9971&lng=31.221900000000005&fid=0x145846da23409ea5:0xc2753e80d608953b&hl=en&gl=eg&client=earth-client&cv=7.3.7.115", "tessellate": "-1", "extrude": "0", "visibility": "-1", "placepageU": "https://www.google.com/earth/rpc/entity?lat=29.9971&lng=31.221900000000005&fid=0x145846da23409ea5:0xc2753e80d608953b&hl=en&gl=eg&client=earth-client&cv=7.3.7.1155&useragent=GoogleEarth/7.3.7.1155(Windows;Microsoft Windows (6.2.9200.0);en;kml:2.2;client:P", "layer": "station giza", "path": "D:\\Q\\newww\\station giza.kmz|layername=station giza|geometrytype=Point25D|uniqueGeometryType=yes" }, "geometry": { "type": "Point", "coordinates": [ 31.2104799, 30.0280186, 0.0 ] } },
{ "type": "Feature", "properties": { "full_id": null, "osm_id": null, "osm_type": "node", "amenity": "bus_station", "addr_stree": null, "addr_city": "giza", "name_en": null, "name_ar": null, "name": "Misr Gas Station (Giza Square)", "public_tra": null, "bus": null, "id": "1.5.1", "descriptio": "<!DOCTYPE html><html><head></head><body><script type=\"text/javascript\">window.location.href=\"https://www.google.com/earth/rpc/entity?lat=29.9971&lng=31.221900000000005&fid=0x145846e42a8f7c09:0x67b2c786d3d2e724&hl=en&gl=eg&client=earth-client&cv=7.3.7.115", "tessellate": "-1", "extrude": "0", "visibility": "-1", "placepageU": "https://www.google.com/earth/rpc/entity?lat=29.9971&lng=31.221900000000005&fid=0x145846e42a8f7c09:0x67b2c786d3d2e724&hl=en&gl=eg&client=earth-client&cv=7.3.7.1155&useragent=GoogleEarth/7.3.7.1155(Windows;Microsoft Windows (6.2.9200.0);en;kml:2.2;client:P", "layer": "station giza", "path": "D:\\Q\\newww\\station giza.kmz|layername=station giza|geometrytype=Point25D|uniqueGeometryType=yes" }, "geometry": { "type": "Point", "coordinates": [ 31.208406, 30.014462, 0.0 ] } },
{ "type": "Feature", "properties": { "full_id": null, "osm_id": null, "osm_type": "node", "amenity": "bus_station", "addr_stree": "البحر الاعظم", "addr_city": "giza", "name_en": null, "name_ar": null, "name": "White Bus Mourad Street", "public_tra": null, "bus": null, "id": "1.6.1", "descriptio": "<!DOCTYPE html><html><head></head><body><script type=\"text/javascript\">window.location.href=\"https://www.google.com/earth/rpc/entity?lat=29.9971&lng=31.221900000000005&fid=0x1458471eebbdf8d7:0x97f6d65963e9320&hl=en&gl=eg&client=earth-client&cv=7.3.7.1155", "tessellate": "-1", "extrude": "0", "visibility": "-1", "placepageU": "https://www.google.com/earth/rpc/entity?lat=29.9971&lng=31.221900000000005&fid=0x1458471eebbdf8d7:0x97f6d65963e9320&hl=en&gl=eg&client=earth-client&cv=7.3.7.1155&useragent=GoogleEarth/7.3.7.1155(Windows;Microsoft Windows (6.2.9200.0);en;kml:2.2;client:Pr", "layer": "station giza", "path": "D:\\Q\\newww\\station giza.kmz|layername=station giza|geometrytype=Point25D|uniqueGeometryType=yes" }, "geometry": { "type": "Point", "coordinates": [ 31.214961322316093, 30.017123554424547, 0.0 ] } },
{ "type": "Feature", "properties": { "full_id": null, "osm_id": null, "osm_type": "node", "amenity": "bus_station", "addr_stree": "28 شارع مراد", "addr_city": "giza", "name_en": null, "name_ar": null, "name": "Super Jet ElJizah", "public_tra": null, "bus": null, "id": "1.8.1", "descriptio": "<!DOCTYPE html><html><head></head><body><script type=\"text/javascript\">window.location.href=\"https://www.google.com/earth/rpc/entity?lat=29.9971&lng=31.221900000000005&fid=0x145846e08a05069f:0x266ace1ea2fb926&hl=en&gl=eg&client=earth-client&cv=7.3.7.1155", "tessellate": "-1", "extrude": "0", "visibility": "-1", "placepageU": "https://www.google.com/earth/rpc/entity?lat=29.9971&lng=31.221900000000005&fid=0x145846e08a05069f:0x266ace1ea2fb926&hl=en&gl=eg&client=earth-client&cv=7.3.7.1155&useragent=GoogleEarth/7.3.7.1155(Windows;Microsoft Windows (6.2.9200.0);en;kml:2.2;client:Pr", "layer": "station giza", "path": "D:\\Q\\newww\\station giza.kmz|layername=station giza|geometrytype=Point25D|uniqueGeometryType=yes" }, "geometry": { "type": "Point", "coordinates": [ 31.213848500830913, 30.015983946558013, 0.0 ] } },
{ "type": "Feature", "properties": { "full_id": null, "osm_id": null, "osm_type": "node", "amenity": "bus_station", "addr_stree": "الجامعه", "addr_city": "giza", "name_en": null, "name_ar": null, "name": "Egyptian Agricultural Bank (Al Giza)", "public_tra": null, "bus": null, "id": "1.6.1", "descriptio": "<!DOCTYPE html><html><head></head><body><script type=\"text/javascript\">window.location.href=\"https://www.google.com/earth/rpc/entity?lat=29.9971&lng=31.221900000000005&fid=0x145846fb31ac16b3:0x560339b4767a6b77&hl=en&gl=eg&client=earth-client&cv=7.3.7.115", "tessellate": "-1", "extrude": "0", "visibility": "-1", "placepageU": "https://www.google.com/earth/rpc/entity?lat=29.9971&lng=31.221900000000005&fid=0x145846fb31ac16b3:0x560339b4767a6b77&hl=en&gl=eg&client=earth-client&cv=7.3.7.1155&useragent=GoogleEarth/7.3.7.1155(Windows;Microsoft Windows (6.2.9200.0);en;kml:2.2;client:P", "layer": "station giza", "path": "D:\\Q\\newww\\station giza.kmz|layername=station giza|geometrytype=Point25D|uniqueGeometryType=yes" }, "geometry": { "type": "Point", "coordinates": [ 31.209127, 30.008642, 0.0 ] } },
{ "type": "Feature", "properties": { "full_id": null, "osm_id": null, "osm_type": "node", "amenity": "bus_station", "addr_stree": "الاهرام", "addr_city": "giza", "name_en": null, "name_ar": null, "name": "Al Omraneyya Bridge Entrance from Giza", "public_tra": null, "bus": null, "id": "1.10.1", "descriptio": "<!DOCTYPE html><html><head></head><body><script type=\"text/javascript\">window.location.href=\"https://www.google.com/earth/rpc/entity?lat=29.9971&lng=31.221900000000005&fid=0x145846f972522be7:0xfcb487e94836f52e&hl=en&gl=eg&client=earth-client&cv=7.3.7.115", "tessellate": "-1", "extrude": "0", "visibility": "-1", "placepageU": "https://www.google.com/earth/rpc/entity?lat=29.9971&lng=31.221900000000005&fid=0x145846f972522be7:0xfcb487e94836f52e&hl=en&gl=eg&client=earth-client&cv=7.3.7.1155&useragent=GoogleEarth/7.3.7.1155(Windows;Microsoft Windows (6.2.9200.0);en;kml:2.2;client:P", "layer": "station giza", "path": "D:\\Q\\newww\\station giza.kmz|layername=station giza|geometrytype=Point25D|uniqueGeometryType=yes" }, "geometry": { "type": "Point", "coordinates": [ 31.210595638028039, 30.002370179237523, 0.0 ] } },
{ "type": "Feature", "properties": { "full_id": null, "osm_id": null, "osm_type": "node", "amenity": "bus_station", "addr_stree": null, "addr_city": "giza", "name_en": null, "name_ar": null, "name": "Al Omraneyya Bridge Entrance from Giza", "public_tra": null, "bus": null, "id": "1.11.1", "descriptio": "<!DOCTYPE html><html><head></head><body><script type=\"text/javascript\">window.location.href=\"https://www.google.com/earth/rpc/entity?lat=29.9971&lng=31.221900000000005&fid=0x145846f9739ee13f:0x5ead54a2b35729f2&hl=en&gl=eg&client=earth-client&cv=7.3.7.115", "tessellate": "-1", "extrude": "0", "visibility": "-1", "placepageU": "https://www.google.com/earth/rpc/entity?lat=29.9971&lng=31.221900000000005&fid=0x145846f9739ee13f:0x5ead54a2b35729f2&hl=en&gl=eg&client=earth-client&cv=7.3.7.1155&useragent=GoogleEarth/7.3.7.1155(Windows;Microsoft Windows (6.2.9200.0);en;kml:2.2;client:P", "layer": "station giza", "path": "D:\\Q\\newww\\station giza.kmz|layername=station giza|geometrytype=Point25D|uniqueGeometryType=yes" }, "geometry": { "type": "Point", "coordinates": [ 31.208682976100384, 30.002962070650383, 0.0 ] } }
]
}
