{
"type": "FeatureCollection",
"name": "hosptial",
"crs": { "type": "name", "properties": { "name": "urn:ogc:def:crs:OGC:1.3:CRS84" } },
"features": [
{ "type": "Feature", "properties": { "OBJECTID": 1, "objectid__": 1485.0, "Name_تع": "مستشفى المروه", "كود_ا": "مستشفـى المروه", "GOV_NAME": "محافظه الجيزه", "GOV_CODE": 21.0, "SEC_NAME": "قسم الجيزه", "SEC_CODE": 4.0, "SSEC_CODE": 9.0, "UNITCODE": 210409.0, "x": 327258.966, "y": 3319832.0235000001 }, "geometry": { "type": "Point", "coordinates": [ 31.209162585998726, 29.997262889683721 ] } },
{ "type": "Feature", "properties": { "OBJECTID": 2, "objectid__": 1500.0, "Name_تع": "مستشفى امير الجيوش", "كود_ا": "عياده اسنان", "GOV_NAME": "محافظه الجيزه", "GOV_CODE": 21.0, "SEC_NAME": "قسم الجيزه", "SEC_CODE": 4.0, "SSEC_CODE": 5.0, "UNITCODE": 210405.0, "x": 328112.8986, "y": 3320863.4197 }, "geometry": { "type": "Point", "coordinates": [ 31.217845578900278, 30.006686426569935 ] } },
{ "type": "Feature", "properties": { "OBJECTID": 3, "objectid__": 1504.0, "Name_تع": "مستشفى النيل", "كود_ا": "مستشفى", "GOV_NAME": "محافظه الجيزه", "GOV_CODE": 21.0, "SEC_NAME": "قسم الجيزه", "SEC_CODE": 4.0, "SSEC_CODE": 3.0, "UNITCODE": 210403.0, "x": 327617.2127, "y": 3321918.6049000002 }, "geometry": { "type": "Point", "coordinates": [ 31.212537612755192, 30.016134721228504 ] } },
{ "type": "Feature", "properties": { "OBJECTID": 4, "objectid__": 1508.0, "Name_تع": "مستشفى الكوثر", "كود_ا": "مستشفى", "GOV_NAME": "محافظه الجيزه", "GOV_CODE": 21.0, "SEC_NAME": "قسم الجيزه", "SEC_CODE": 4.0, "SSEC_CODE": 4.0, "UNITCODE": 210404.0, "x": 328073.9044, "y": 3321215.7092 }, "geometry": { "type": "Point", "coordinates": [ 31.217384613535643, 30.009858680030785 ] } },
{ "type": "Feature", "properties": { "OBJECTID": 5, "objectid__": 1521.0, "Name_تع": "مستشفى الرمد الجيزه", "كود_ا": "مستشفى الرمد", "GOV_NAME": "محافظه الجيزه", "GOV_CODE": 21.0, "SEC_NAME": "قسم الجيزه", "SEC_CODE": 4.0, "SSEC_CODE": 4.0, "UNITCODE": 210404.0, "x": 327952.8038, "y": 3321821.891 }, "geometry": { "type": "Point", "coordinates": [ 31.216031612979751, 30.015309553509791 ] } },
{ "type": "Feature", "properties": { "OBJECTID": 6, "objectid__": 1533.0, "Name_تع": "مستشفـى دار الولاده الطبيعيه", "كود_ا": "مستشفى", "GOV_NAME": "محافظه الجيزه", "GOV_CODE": 21.0, "SEC_NAME": "قسم الجيزه", "SEC_CODE": 4.0, "SSEC_CODE": 4.0, "UNITCODE": 210404.0, "x": 327792.3804, "y": 3321754.787 }, "geometry": { "type": "Point", "coordinates": [ 31.214379693952246, 30.014681706512402 ] } },
{ "type": "Feature", "properties": { "OBJECTID": 7, "objectid__": 1577.0, "Name_تع": "مستشفى النيل", "كود_ا": "مستشفى النيل", "GOV_NAME": "محافظه الجيزه", "GOV_CODE": 21.0, "SEC_NAME": "قسم الجيزه", "SEC_CODE": 4.0, "SSEC_CODE": 3.0, "UNITCODE": 210403.0, "x": 327616.0629, "y": 3321887.2097999998 }, "geometry": { "type": "Point", "coordinates": [ 31.212530775194057, 30.015851369832923 ] } },
{ "type": "Feature", "properties": { "OBJECTID": 8, "objectid__": 1688.0, "Name_تع": "مستشفى جامعه القاهره", "كود_ا": "مستشفى", "GOV_NAME": "محافظه الجيزه", "GOV_CODE": 21.0, "SEC_NAME": "قسم الجيزه", "SEC_CODE": 4.0, "SSEC_CODE": 3.0, "UNITCODE": 210403.0, "x": 327215.7655, "y": 3321860.444 }, "geometry": { "type": "Point", "coordinates": [ 31.208386080103075, 30.015553504407109 ] } },
{ "type": "Feature", "properties": { "OBJECTID": 9, "objectid__": 1742.0, "Name_تع": "مستشفى نور الحياه", "كود_ا": "علاج مرضى", "GOV_NAME": "محافظه الجيزه", "GOV_CODE": 21.0, "SEC_NAME": "قسم الجيزه", "SEC_CODE": 4.0, "SSEC_CODE": 10.0, "UNITCODE": 210410.0, "x": 327237.4104, "y": 3317059.93 }, "geometry": { "type": "Point", "coordinates": [ 31.209388037543373, 29.972254992376158 ] } },
{ "type": "Feature", "properties": { "OBJECTID": 10, "objectid__": 1801.0, "Name_تع": "مستشفى ام المصريين", "كود_ا": "<Null>", "GOV_NAME": "محافظه الجيزه", "GOV_CODE": 21.0, "SEC_NAME": "قسم الجيزه", "SEC_CODE": 4.0, "SSEC_CODE": 6.0, "UNITCODE": 210406.0, "x": 327326.4198, "y": 3320722.5957 }, "geometry": { "type": "Point", "coordinates": [ 31.20971736775288, 30.005305527314761 ] } },
{ "type": "Feature", "properties": { "OBJECTID": 11, "objectid__": 1802.0, "Name_تع": "مستشفى الجمعيه البيوميه", "كود_ا": "<Null>", "GOV_NAME": "محافظه الجيزه", "GOV_CODE": 21.0, "SEC_NAME": "قسم الجيزه", "SEC_CODE": 4.0, "SSEC_CODE": 4.0, "UNITCODE": 210404.0, "x": 328040.2172, "y": 3321415.3215000001 }, "geometry": { "type": "Point", "coordinates": [ 31.217003257936788, 30.011654494525896 ] } }
]
}
