{
"type": "FeatureCollection",
"name": "maysemm",
"crs": { "type": "name", "properties": { "name": "urn:ogc:def:crs:OGC:1.3:CRS84" } },
"features": [
{ "type": "Feature", "properties": { "full_id": "n1954835300", "osm_id": "1954835300", "osm_type": "node", "amenity": "place_of_worship", "internet_a": null, "check_date": null, "addr_place": null, "opening_ho": null, "air_condit": null, "addr_count": null, "addr_city": null, "addr_subdi": null, "addr_sub_1": null, "addr_stree": null, "addr_provi": null, "addr_pro_1": null, "addr_distr": null, "addr_dis_1": null, "building": null, "denominati": null, "opening__1": null, "addr_str_1": null, "addr_postc": null, "addr_house": null, "name_fr": null, "name_de": null, "name_ar1": null, "int_name": null, "alt_name": null, "religion": "muslim", "name_en": "Al-Rahman Mosque", "name_ar": "مسجد الرحمن", "name": "مسجد الرحمن", "adm3_name": null, "adm3_name1": "جزيرةالدهب", "adm3_name2": null, "adm3_name3": null, "adm3_pcode": "EG210402", "adm2_name": "Giza", "adm2_name1": "قسم الجيزة", "adm2_name2": null, "adm2_name3": null, "adm2_pcode": "EG2104", "adm1_name": "Giza", "adm1_name1": "الجيزة", "adm1_name2": null, "adm1_name3": null, "adm1_pcode": "EG21", "adm0_name": "Egypt", "adm0_name1": "مصر", "adm0_name2": null, "adm0_name3": null, "adm0_pcode": "EG", "valid_on": "2017-04-21", "valid_to": null, "area_sqkm": 5.06883471, "version": "v01", "lang": "en", "lang1": "ar", "lang2": null, "lang3": null, "adm3_ref_n": "None", "center_lat": 29.98079322, "center_lon": 31.21577725 }, "geometry": { "type": "MultiPoint", "coordinates": [ [ 31.2142204, 29.9877607 ] ] } },
{ "type": "Feature", "properties": { "full_id": "n1954837607", "osm_id": "1954837607", "osm_type": "node", "amenity": "place_of_worship", "internet_a": null, "check_date": null, "addr_place": null, "opening_ho": null, "air_condit": null, "addr_count": null, "addr_city": null, "addr_subdi": null, "addr_sub_1": null, "addr_stree": null, "addr_provi": null, "addr_pro_1": null, "addr_distr": null, "addr_dis_1": null, "building": null, "denominati": null, "opening__1": null, "addr_str_1": null, "addr_postc": null, "addr_house": null, "name_fr": null, "name_de": null, "name_ar1": null, "int_name": null, "alt_name": null, "religion": "muslim", "name_en": null, "name_ar": null, "name": "مسجد المدينه المنوره القصبجي", "adm3_name": null, "adm3_name1": "جزيرةالدهب", "adm3_name2": null, "adm3_name3": null, "adm3_pcode": "EG210402", "adm2_name": "Giza", "adm2_name1": "قسم الجيزة", "adm2_name2": null, "adm2_name3": null, "adm2_pcode": "EG2104", "adm1_name": "Giza", "adm1_name1": "الجيزة", "adm1_name2": null, "adm1_name3": null, "adm1_pcode": "EG21", "adm0_name": "Egypt", "adm0_name1": "مصر", "adm0_name2": null, "adm0_name3": null, "adm0_pcode": "EG", "valid_on": "2017-04-21", "valid_to": null, "area_sqkm": 5.06883471, "version": "v01", "lang": "en", "lang1": "ar", "lang2": null, "lang3": null, "adm3_ref_n": "None", "center_lat": 29.98079322, "center_lon": 31.21577725 }, "geometry": { "type": "MultiPoint", "coordinates": [ [ 31.2150331, 29.9891987 ] ] } },
{ "type": "Feature", "properties": { "full_id": "n1954843317", "osm_id": "1954843317", "osm_type": "node", "amenity": "place_of_worship", "internet_a": null, "check_date": null, "addr_place": null, "opening_ho": null, "air_condit": null, "addr_count": null, "addr_city": null, "addr_subdi": null, "addr_sub_1": null, "addr_stree": null, "addr_provi": null, "addr_pro_1": null, "addr_distr": null, "addr_dis_1": null, "building": null, "denominati": null, "opening__1": null, "addr_str_1": null, "addr_postc": null, "addr_house": null, "name_fr": null, "name_de": null, "name_ar1": null, "int_name": null, "alt_name": null, "religion": "muslim", "name_en": null, "name_ar": null, "name": "مسجد المدينه المنوره", "adm3_name": null, "adm3_name1": "جزيرةالدهب", "adm3_name2": null, "adm3_name3": null, "adm3_pcode": "EG210402", "adm2_name": "Giza", "adm2_name1": "قسم الجيزة", "adm2_name2": null, "adm2_name3": null, "adm2_pcode": "EG2104", "adm1_name": "Giza", "adm1_name1": "الجيزة", "adm1_name2": null, "adm1_name3": null, "adm1_pcode": "EG21", "adm0_name": "Egypt", "adm0_name1": "مصر", "adm0_name2": null, "adm0_name3": null, "adm0_pcode": "EG", "valid_on": "2017-04-21", "valid_to": null, "area_sqkm": 5.06883471, "version": "v01", "lang": "en", "lang1": "ar", "lang2": null, "lang3": null, "adm3_ref_n": "None", "center_lat": 29.98079322, "center_lon": 31.21577725 }, "geometry": { "type": "MultiPoint", "coordinates": [ [ 31.2139326, 29.9921067 ] ] } },
{ "type": "Feature", "properties": { "full_id": "n1954893173", "osm_id": "1954893173", "osm_type": "node", "amenity": "place_of_worship", "internet_a": null, "check_date": null, "addr_place": null, "opening_ho": null, "air_condit": null, "addr_count": null, "addr_city": null, "addr_subdi": null, "addr_sub_1": null, "addr_stree": null, "addr_provi": null, "addr_pro_1": null, "addr_distr": null, "addr_dis_1": null, "building": null, "denominati": null, "opening__1": null, "addr_str_1": null, "addr_postc": null, "addr_house": null, "name_fr": null, "name_de": null, "name_ar1": null, "int_name": null, "alt_name": null, "religion": "muslim", "name_en": "Aal Yasser Mosque", "name_ar": "مسجد آل ياسر", "name": "مسجد آل ياسر", "adm3_name": null, "adm3_name1": "جزيرةالدهب", "adm3_name2": null, "adm3_name3": null, "adm3_pcode": "EG210402", "adm2_name": "Giza", "adm2_name1": "قسم الجيزة", "adm2_name2": null, "adm2_name3": null, "adm2_pcode": "EG2104", "adm1_name": "Giza", "adm1_name1": "الجيزة", "adm1_name2": null, "adm1_name3": null, "adm1_pcode": "EG21", "adm0_name": "Egypt", "adm0_name1": "مصر", "adm0_name2": null, "adm0_name3": null, "adm0_pcode": "EG", "valid_on": "2017-04-21", "valid_to": null, "area_sqkm": 5.06883471, "version": "v01", "lang": "en", "lang1": "ar", "lang2": null, "lang3": null, "adm3_ref_n": "None", "center_lat": 29.98079322, "center_lon": 31.21577725 }, "geometry": { "type": "MultiPoint", "coordinates": [ [ 31.21392, 29.9932571 ] ] } },
{ "type": "Feature", "properties": { "full_id": "n1954902017", "osm_id": "1954902017", "osm_type": "node", "amenity": "place_of_worship", "internet_a": null, "check_date": null, "addr_place": null, "opening_ho": null, "air_condit": null, "addr_count": null, "addr_city": null, "addr_subdi": null, "addr_sub_1": null, "addr_stree": null, "addr_provi": null, "addr_pro_1": null, "addr_distr": null, "addr_dis_1": null, "building": null, "denominati": null, "opening__1": null, "addr_str_1": null, "addr_postc": null, "addr_house": null, "name_fr": null, "name_de": null, "name_ar1": null, "int_name": null, "alt_name": null, "religion": "muslim", "name_en": "Al-Mustafa Mosque", "name_ar": "مسجد المصطفى", "name": "مسجد المصطفى", "adm3_name": null, "adm3_name1": "ساقيةمكي", "adm3_name2": null, "adm3_name3": null, "adm3_pcode": "EG210407", "adm2_name": "Giza", "adm2_name1": "قسم الجيزة", "adm2_name2": null, "adm2_name3": null, "adm2_pcode": "EG2104", "adm1_name": "Giza", "adm1_name1": "الجيزة", "adm1_name2": null, "adm1_name3": null, "adm1_pcode": "EG21", "adm0_name": "Egypt", "adm0_name1": "مصر", "adm0_name2": null, "adm0_name3": null, "adm0_pcode": "EG", "valid_on": "2017-04-21", "valid_to": null, "area_sqkm": 0.62749246, "version": "v01", "lang": "en", "lang1": "ar", "lang2": null, "lang3": null, "adm3_ref_n": "None", "center_lat": 29.99761682, "center_lon": 31.21346667 }, "geometry": { "type": "MultiPoint", "coordinates": [ [ 31.2118604, 29.9950443 ] ] } },
{ "type": "Feature", "properties": { "full_id": "n1954904037", "osm_id": "1954904037", "osm_type": "node", "amenity": "place_of_worship", "internet_a": null, "check_date": null, "addr_place": null, "opening_ho": null, "air_condit": null, "addr_count": null, "addr_city": null, "addr_subdi": null, "addr_sub_1": null, "addr_stree": null, "addr_provi": null, "addr_pro_1": null, "addr_distr": null, "addr_dis_1": null, "building": null, "denominati": null, "opening__1": null, "addr_str_1": null, "addr_postc": null, "addr_house": null, "name_fr": null, "name_de": null, "name_ar1": null, "int_name": null, "alt_name": null, "religion": "muslim", "name_en": "Mahmoud Selim Mosque", "name_ar": "مسجد محمود سليم", "name": "مسجد محمود سليم", "adm3_name": null, "adm3_name1": "ساقيةمكي", "adm3_name2": null, "adm3_name3": null, "adm3_pcode": "EG210407", "adm2_name": "Giza", "adm2_name1": "قسم الجيزة", "adm2_name2": null, "adm2_name3": null, "adm2_pcode": "EG2104", "adm1_name": "Giza", "adm1_name1": "الجيزة", "adm1_name2": null, "adm1_name3": null, "adm1_pcode": "EG21", "adm0_name": "Egypt", "adm0_name1": "مصر", "adm0_name2": null, "adm0_name3": null, "adm0_pcode": "EG", "valid_on": "2017-04-21", "valid_to": null, "area_sqkm": 0.62749246, "version": "v01", "lang": "en", "lang1": "ar", "lang2": null, "lang3": null, "adm3_ref_n": "None", "center_lat": 29.99761682, "center_lon": 31.21346667 }, "geometry": { "type": "MultiPoint", "coordinates": [ [ 31.2119271, 29.9944209 ] ] } },
{ "type": "Feature", "properties": { "full_id": "n1954907861", "osm_id": "1954907861", "osm_type": "node", "amenity": "place_of_worship", "internet_a": null, "check_date": null, "addr_place": null, "opening_ho": null, "air_condit": null, "addr_count": null, "addr_city": null, "addr_subdi": null, "addr_sub_1": null, "addr_stree": null, "addr_provi": null, "addr_pro_1": null, "addr_distr": null, "addr_dis_1": null, "building": null, "denominati": null, "opening__1": null, "addr_str_1": null, "addr_postc": null, "addr_house": null, "name_fr": null, "name_de": null, "name_ar1": null, "int_name": null, "alt_name": null, "religion": "muslim", "name_en": "Al-Haramein Mosque", "name_ar": "مسجد الحرمين", "name": "مسجد الحرمين", "adm3_name": null, "adm3_name1": "العمرانيةالشرقية", "adm3_name2": null, "adm3_name3": null, "adm3_pcode": "EG211802", "adm2_name": "Umraniyya", "adm2_name1": "قسم العمرانية", "adm2_name2": null, "adm2_name3": null, "adm2_pcode": "EG2118", "adm1_name": "Giza", "adm1_name1": "الجيزة", "adm1_name2": null, "adm1_name3": null, "adm1_pcode": "EG21", "adm0_name": "Egypt", "adm0_name1": "مصر", "adm0_name2": null, "adm0_name3": null, "adm0_pcode": "EG", "valid_on": "2017-04-21", "valid_to": null, "area_sqkm": 0.92403747, "version": "v01", "lang": "en", "lang1": "ar", "lang2": null, "lang3": null, "adm3_ref_n": "None", "center_lat": 30.00321448, "center_lon": 31.20740752 }, "geometry": { "type": "MultiPoint", "coordinates": [ [ 31.2078237, 29.9946308 ] ] } },
{ "type": "Feature", "properties": { "full_id": "n1954938145", "osm_id": "1954938145", "osm_type": "node", "amenity": "place_of_worship", "internet_a": null, "check_date": null, "addr_place": null, "opening_ho": null, "air_condit": null, "addr_count": null, "addr_city": null, "addr_subdi": null, "addr_sub_1": null, "addr_stree": null, "addr_provi": null, "addr_pro_1": null, "addr_distr": null, "addr_dis_1": null, "building": null, "denominati": null, "opening__1": null, "addr_str_1": null, "addr_postc": null, "addr_house": null, "name_fr": null, "name_de": null, "name_ar1": null, "int_name": null, "alt_name": null, "religion": "muslim", "name_en": "Badr Mosque", "name_ar": "مسجد بدر", "name": "مسجد بدر", "adm3_name": null, "adm3_name1": "العمرانيةالشرقية", "adm3_name2": null, "adm3_name3": null, "adm3_pcode": "EG211802", "adm2_name": "Umraniyya", "adm2_name1": "قسم العمرانية", "adm2_name2": null, "adm2_name3": null, "adm2_pcode": "EG2118", "adm1_name": "Giza", "adm1_name1": "الجيزة", "adm1_name2": null, "adm1_name3": null, "adm1_pcode": "EG21", "adm0_name": "Egypt", "adm0_name1": "مصر", "adm0_name2": null, "adm0_name3": null, "adm0_pcode": "EG", "valid_on": "2017-04-21", "valid_to": null, "area_sqkm": 0.92403747, "version": "v01", "lang": "en", "lang1": "ar", "lang2": null, "lang3": null, "adm3_ref_n": "None", "center_lat": 30.00321448, "center_lon": 31.20740752 }, "geometry": { "type": "MultiPoint", "coordinates": [ [ 31.2096284, 29.9974988 ] ] } },
{ "type": "Feature", "properties": { "full_id": "n1954942595", "osm_id": "1954942595", "osm_type": "node", "amenity": "place_of_worship", "internet_a": null, "check_date": null, "addr_place": null, "opening_ho": null, "air_condit": null, "addr_count": null, "addr_city": null, "addr_subdi": null, "addr_sub_1": null, "addr_stree": null, "addr_provi": null, "addr_pro_1": null, "addr_distr": null, "addr_dis_1": null, "building": null, "denominati": null, "opening__1": null, "addr_str_1": null, "addr_postc": null, "addr_house": null, "name_fr": null, "name_de": null, "name_ar1": null, "int_name": null, "alt_name": null, "religion": "muslim", "name_en": "Al-Tawheed Mosque", "name_ar": "مسجد التوحيد", "name": "مسجد التوحيد", "adm3_name": null, "adm3_name1": "العمرانيةالشرقية", "adm3_name2": null, "adm3_name3": null, "adm3_pcode": "EG211802", "adm2_name": "Umraniyya", "adm2_name1": "قسم العمرانية", "adm2_name2": null, "adm2_name3": null, "adm2_pcode": "EG2118", "adm1_name": "Giza", "adm1_name1": "الجيزة", "adm1_name2": null, "adm1_name3": null, "adm1_pcode": "EG21", "adm0_name": "Egypt", "adm0_name1": "مصر", "adm0_name2": null, "adm0_name3": null, "adm0_pcode": "EG", "valid_on": "2017-04-21", "valid_to": null, "area_sqkm": 0.92403747, "version": "v01", "lang": "en", "lang1": "ar", "lang2": null, "lang3": null, "adm3_ref_n": "None", "center_lat": 30.00321448, "center_lon": 31.20740752 }, "geometry": { "type": "MultiPoint", "coordinates": [ [ 31.2090786, 30.0007601 ] ] } },
{ "type": "Feature", "properties": { "full_id": "n1954972474", "osm_id": "1954972474", "osm_type": "node", "amenity": "place_of_worship", "internet_a": null, "check_date": null, "addr_place": null, "opening_ho": null, "air_condit": null, "addr_count": null, "addr_city": null, "addr_subdi": null, "addr_sub_1": null, "addr_stree": null, "addr_provi": null, "addr_pro_1": null, "addr_distr": null, "addr_dis_1": null, "building": null, "denominati": null, "opening__1": null, "addr_str_1": null, "addr_postc": null, "addr_house": null, "name_fr": null, "name_de": null, "name_ar1": null, "int_name": null, "alt_name": null, "religion": "muslim", "name_en": "Al-Huseineya Mosque", "name_ar": "مسجد الحسينية", "name": "مسجد الحسينية", "adm3_name": null, "adm3_name1": "العمرانيةالغربية", "adm3_name2": null, "adm3_name3": null, "adm3_pcode": "EG211803", "adm2_name": "Umraniyya", "adm2_name1": "قسم العمرانية", "adm2_name2": null, "adm2_name3": null, "adm2_pcode": "EG2118", "adm1_name": "Giza", "adm1_name1": "الجيزة", "adm1_name2": null, "adm1_name3": null, "adm1_pcode": "EG21", "adm0_name": "Egypt", "adm0_name1": "مصر", "adm0_name2": null, "adm0_name3": null, "adm0_pcode": "EG", "valid_on": "2017-04-21", "valid_to": null, "area_sqkm": 3.83271154, "version": "v01", "lang": "en", "lang1": "ar", "lang2": null, "lang3": null, "adm3_ref_n": "None", "center_lat": 29.99802861, "center_lon": 31.19827555 }, "geometry": { "type": "MultiPoint", "coordinates": [ [ 31.2046715, 29.9981843 ] ] } },
{ "type": "Feature", "properties": { "full_id": "n4540867890", "osm_id": "4540867890", "osm_type": "node", "amenity": "place_of_worship", "internet_a": null, "check_date": null, "addr_place": null, "opening_ho": null, "air_condit": null, "addr_count": null, "addr_city": null, "addr_subdi": "First", "addr_sub_1": "اولى", "addr_stree": "Al Nil Street", "addr_provi": "Giza", "addr_pro_1": "الجيزه", "addr_distr": "Al Giza", "addr_dis_1": "الجيزه", "building": null, "denominati": null, "opening__1": null, "addr_str_1": "شارع النيل", "addr_postc": "12513", "addr_house": "60", "name_fr": null, "name_de": null, "name_ar1": null, "int_name": null, "alt_name": null, "religion": "MUSLIM", "name_en": null, "name_ar": null, "name": "مسجد الشرايفه", "adm3_name": null, "adm3_name1": "حارةأولي", "adm3_name2": null, "adm3_name3": null, "adm3_pcode": "EG210403", "adm2_name": "Giza", "adm2_name1": "قسم الجيزة", "adm2_name2": null, "adm2_name3": null, "adm2_pcode": "EG2104", "adm1_name": "Giza", "adm1_name1": "الجيزة", "adm1_name2": null, "adm1_name3": null, "adm1_pcode": "EG21", "adm0_name": "Egypt", "adm0_name1": "مصر", "adm0_name2": null, "adm0_name3": null, "adm0_pcode": "EG", "valid_on": "2017-04-21", "valid_to": null, "area_sqkm": 2.91380577, "version": "v01", "lang": "en", "lang1": "ar", "lang2": null, "lang3": null, "adm3_ref_n": "None", "center_lat": 30.02259139, "center_lon": 31.21202742 }, "geometry": { "type": "MultiPoint", "coordinates": [ [ 31.2178694, 30.0293799 ] ] } },
{ "type": "Feature", "properties": { "full_id": "n8720220117", "osm_id": "8720220117", "osm_type": "node", "amenity": "place_of_worship", "internet_a": null, "check_date": null, "addr_place": null, "opening_ho": null, "air_condit": null, "addr_count": null, "addr_city": null, "addr_subdi": null, "addr_sub_1": null, "addr_stree": null, "addr_provi": null, "addr_pro_1": null, "addr_distr": null, "addr_dis_1": null, "building": null, "denominati": null, "opening__1": null, "addr_str_1": null, "addr_postc": null, "addr_house": null, "name_fr": null, "name_de": null, "name_ar1": null, "int_name": null, "alt_name": null, "religion": "muslim", "name_en": null, "name_ar": null, "name": "مسجد الرحمة", "adm3_name": null, "adm3_name1": "الدقي", "adm3_name2": null, "adm3_name3": null, "adm3_pcode": "EG210301", "adm2_name": "DuqqI", "adm2_name1": "قسم الدقي", "adm2_name2": null, "adm2_name3": null, "adm2_pcode": "EG2103", "adm1_name": "Giza", "adm1_name1": "الجيزة", "adm1_name2": null, "adm1_name3": null, "adm1_pcode": "EG21", "adm0_name": "Egypt", "adm0_name1": "مصر", "adm0_name2": null, "adm0_name3": null, "adm0_pcode": "EG", "valid_on": "2017-04-21", "valid_to": null, "area_sqkm": 5.21054398, "version": "v01", "lang": "en", "lang1": "ar", "lang2": null, "lang3": null, "adm3_ref_n": "None", "center_lat": 30.04242001, "center_lon": 31.20822266 }, "geometry": { "type": "MultiPoint", "coordinates": [ [ 31.218115, 30.0387024 ] ] } },
{ "type": "Feature", "properties": { "full_id": "n11329359299", "osm_id": "11329359299", "osm_type": "node", "amenity": "place_of_worship", "internet_a": null, "check_date": null, "addr_place": null, "opening_ho": null, "air_condit": null, "addr_count": null, "addr_city": null, "addr_subdi": null, "addr_sub_1": null, "addr_stree": null, "addr_provi": null, "addr_pro_1": null, "addr_distr": null, "addr_dis_1": null, "building": null, "denominati": null, "opening__1": null, "addr_str_1": null, "addr_postc": null, "addr_house": null, "name_fr": null, "name_de": null, "name_ar1": null, "int_name": null, "alt_name": null, "religion": null, "name_en": null, "name_ar": null, "name": "مسجد الكردي", "adm3_name": null, "adm3_name1": "المنيب", "adm3_name2": null, "adm3_name3": null, "adm3_pcode": "EG210401", "adm2_name": "Giza", "adm2_name1": "قسم الجيزة", "adm2_name2": null, "adm2_name3": null, "adm2_pcode": "EG2104", "adm1_name": "Giza", "adm1_name1": "الجيزة", "adm1_name2": null, "adm1_name3": null, "adm1_pcode": "EG21", "adm0_name": "Egypt", "adm0_name1": "مصر", "adm0_name2": null, "adm0_name3": null, "adm0_pcode": "EG", "valid_on": "2017-04-21", "valid_to": null, "area_sqkm": 1.69149762, "version": "v01", "lang": "en", "lang1": "ar", "lang2": null, "lang3": null, "adm3_ref_n": "None", "center_lat": 29.98364366, "center_lon": 31.19941581 }, "geometry": { "type": "MultiPoint", "coordinates": [ [ 31.207931, 29.9799553 ] ] } },
{ "type": "Feature", "properties": { "full_id": "n12995998680", "osm_id": "12995998680", "osm_type": "node", "amenity": "place_of_worship", "internet_a": null, "check_date": null, "addr_place": null, "opening_ho": null, "air_condit": null, "addr_count": null, "addr_city": null, "addr_subdi": null, "addr_sub_1": null, "addr_stree": null, "addr_provi": null, "addr_pro_1": null, "addr_distr": null, "addr_dis_1": null, "building": null, "denominati": null, "opening__1": null, "addr_str_1": null, "addr_postc": null, "addr_house": null, "name_fr": null, "name_de": null, "name_ar1": null, "int_name": null, "alt_name": null, "religion": "muslim", "name_en": "Al Semary Mosque", "name_ar": "مسجد السمري", "name": "مسجد السمري", "adm3_name": null, "adm3_name1": "الدقي", "adm3_name2": null, "adm3_name3": null, "adm3_pcode": "EG210301", "adm2_name": "DuqqI", "adm2_name1": "قسم الدقي", "adm2_name2": null, "adm2_name3": null, "adm2_pcode": "EG2103", "adm1_name": "Giza", "adm1_name1": "الجيزة", "adm1_name2": null, "adm1_name3": null, "adm1_pcode": "EG21", "adm0_name": "Egypt", "adm0_name1": "مصر", "adm0_name2": null, "adm0_name3": null, "adm0_pcode": "EG", "valid_on": "2017-04-21", "valid_to": null, "area_sqkm": 5.21054398, "version": "v01", "lang": "en", "lang1": "ar", "lang2": null, "lang3": null, "adm3_ref_n": "None", "center_lat": 30.04242001, "center_lon": 31.20822266 }, "geometry": { "type": "MultiPoint", "coordinates": [ [ 31.2117387, 30.0341297 ] ] } },
{ "type": "Feature", "properties": { "full_id": "n12995998681", "osm_id": "12995998681", "osm_type": "node", "amenity": "place_of_worship", "internet_a": null, "check_date": null, "addr_place": null, "opening_ho": null, "air_condit": null, "addr_count": null, "addr_city": null, "addr_subdi": null, "addr_sub_1": null, "addr_stree": null, "addr_provi": null, "addr_pro_1": null, "addr_distr": null, "addr_dis_1": null, "building": null, "denominati": null, "opening__1": null, "addr_str_1": null, "addr_postc": null, "addr_house": null, "name_fr": null, "name_de": null, "name_ar1": null, "int_name": null, "alt_name": null, "religion": "muslim", "name_en": null, "name_ar": "مسجد الإيمان", "name": "مسجد الإيمان", "adm3_name": null, "adm3_name1": "الدقي", "adm3_name2": null, "adm3_name3": null, "adm3_pcode": "EG210301", "adm2_name": "DuqqI", "adm2_name1": "قسم الدقي", "adm2_name2": null, "adm2_name3": null, "adm2_pcode": "EG2103", "adm1_name": "Giza", "adm1_name1": "الجيزة", "adm1_name2": null, "adm1_name3": null, "adm1_pcode": "EG21", "adm0_name": "Egypt", "adm0_name1": "مصر", "adm0_name2": null, "adm0_name3": null, "adm0_pcode": "EG", "valid_on": "2017-04-21", "valid_to": null, "area_sqkm": 5.21054398, "version": "v01", "lang": "en", "lang1": "ar", "lang2": null, "lang3": null, "adm3_ref_n": "None", "center_lat": 30.04242001, "center_lon": 31.20822266 }, "geometry": { "type": "MultiPoint", "coordinates": [ [ 31.2123729, 30.0351638 ] ] } },
{ "type": "Feature", "properties": { "full_id": "n13092291443", "osm_id": "13092291443", "osm_type": "node", "amenity": "place_of_worship", "internet_a": null, "check_date": null, "addr_place": null, "opening_ho": null, "air_condit": null, "addr_count": null, "addr_city": null, "addr_subdi": null, "addr_sub_1": null, "addr_stree": null, "addr_provi": null, "addr_pro_1": null, "addr_distr": null, "addr_dis_1": null, "building": null, "denominati": null, "opening__1": null, "addr_str_1": null, "addr_postc": null, "addr_house": null, "name_fr": null, "name_de": null, "name_ar1": null, "int_name": null, "alt_name": null, "religion": "muslim", "name_en": null, "name_ar": "مسجدظ الصيرفى", "name": "مسجدظ الصيرفى", "adm3_name": null, "adm3_name1": "حارةأولي", "adm3_name2": null, "adm3_name3": null, "adm3_pcode": "EG210403", "adm2_name": "Giza", "adm2_name1": "قسم الجيزة", "adm2_name2": null, "adm2_name3": null, "adm2_pcode": "EG2104", "adm1_name": "Giza", "adm1_name1": "الجيزة", "adm1_name2": null, "adm1_name3": null, "adm1_pcode": "EG21", "adm0_name": "Egypt", "adm0_name1": "مصر", "adm0_name2": null, "adm0_name3": null, "adm0_pcode": "EG", "valid_on": "2017-04-21", "valid_to": null, "area_sqkm": 2.91380577, "version": "v01", "lang": "en", "lang1": "ar", "lang2": null, "lang3": null, "adm3_ref_n": "None", "center_lat": 30.02259139, "center_lon": 31.21202742 }, "geometry": { "type": "MultiPoint", "coordinates": [ [ 31.2151077, 30.0167682 ] ] } },
{ "type": "Feature", "properties": { "full_id": "n13268876564", "osm_id": "13268876564", "osm_type": "node", "amenity": "place_of_worship", "internet_a": null, "check_date": null, "addr_place": null, "opening_ho": null, "air_condit": null, "addr_count": "EG", "addr_city": null, "addr_subdi": "Al Orman", "addr_sub_1": "الاورمان", "addr_stree": "Saleh Selim Street", "addr_provi": "Giza", "addr_pro_1": "الجيزه", "addr_distr": "Al Doqi", "addr_dis_1": "الدقى", "building": null, "denominati": null, "opening__1": null, "addr_str_1": "شارع صالح سليم", "addr_postc": "12612", "addr_house": "7", "name_fr": null, "name_de": null, "name_ar1": null, "int_name": null, "alt_name": null, "religion": "muslim", "name_en": null, "name_ar": "مسجد الحمد", "name": "مسجد الحمد", "adm3_name": null, "adm3_name1": "الدقي", "adm3_name2": null, "adm3_name3": null, "adm3_pcode": "EG210301", "adm2_name": "DuqqI", "adm2_name1": "قسم الدقي", "adm2_name2": null, "adm2_name3": null, "adm2_pcode": "EG2103", "adm1_name": "Giza", "adm1_name1": "الجيزة", "adm1_name2": null, "adm1_name3": null, "adm1_pcode": "EG21", "adm0_name": "Egypt", "adm0_name1": "مصر", "adm0_name2": null, "adm0_name3": null, "adm0_pcode": "EG", "valid_on": "2017-04-21", "valid_to": null, "area_sqkm": 5.21054398, "version": "v01", "lang": "en", "lang1": "ar", "lang2": null, "lang3": null, "adm3_ref_n": "None", "center_lat": 30.04242001, "center_lon": 31.20822266 }, "geometry": { "type": "MultiPoint", "coordinates": [ [ 31.2143948, 30.0328912 ] ] } },
{ "type": "Feature", "properties": { "full_id": "n13334155860", "osm_id": "13334155860", "osm_type": "node", "amenity": "place_of_worship", "internet_a": null, "check_date": "2025-11-26", "addr_place": null, "opening_ho": null, "air_condit": null, "addr_count": null, "addr_city": null, "addr_subdi": null, "addr_sub_1": null, "addr_stree": null, "addr_provi": null, "addr_pro_1": null, "addr_distr": null, "addr_dis_1": null, "building": null, "denominati": null, "opening__1": null, "addr_str_1": null, "addr_postc": null, "addr_house": null, "name_fr": null, "name_de": null, "name_ar1": null, "int_name": null, "alt_name": null, "religion": "muslim", "name_en": null, "name_ar": null, "name": null, "adm3_name": null, "adm3_name1": "الكنيسة", "adm3_name2": null, "adm3_name3": null, "adm3_pcode": "EG211804", "adm2_name": "Umraniyya", "adm2_name1": "قسم العمرانية", "adm2_name2": null, "adm2_name3": null, "adm2_pcode": "EG2118", "adm1_name": "Giza", "adm1_name1": "الجيزة", "adm1_name2": null, "adm1_name3": null, "adm1_pcode": "EG21", "adm0_name": "Egypt", "adm0_name1": "مصر", "adm0_name2": null, "adm0_name3": null, "adm0_pcode": "EG", "valid_on": "2017-04-21", "valid_to": null, "area_sqkm": 5.31239177, "version": "v01", "lang": "en", "lang1": "ar", "lang2": null, "lang3": null, "adm3_ref_n": "None", "center_lat": 29.98197266, "center_lon": 31.18099857 }, "geometry": { "type": "MultiPoint", "coordinates": [ [ 31.2074166, 29.9850978 ] ] } },
{ "type": "Feature", "properties": { "full_id": "n13720468202", "osm_id": "13720468202", "osm_type": "node", "amenity": "place_of_worship", "internet_a": null, "check_date": null, "addr_place": null, "opening_ho": null, "air_condit": null, "addr_count": null, "addr_city": null, "addr_subdi": null, "addr_sub_1": null, "addr_stree": null, "addr_provi": null, "addr_pro_1": null, "addr_distr": null, "addr_dis_1": null, "building": null, "denominati": null, "opening__1": null, "addr_str_1": "شارع حسين زكى", "addr_postc": null, "addr_house": "19", "name_fr": null, "name_de": null, "name_ar1": null, "int_name": null, "alt_name": null, "religion": "MUSLIM", "name_en": null, "name_ar": null, "name": "مسجد الرحمن", "adm3_name": null, "adm3_name1": "جزيرةالدهب", "adm3_name2": null, "adm3_name3": null, "adm3_pcode": "EG210402", "adm2_name": "Giza", "adm2_name1": "قسم الجيزة", "adm2_name2": null, "adm2_name3": null, "adm2_pcode": "EG2104", "adm1_name": "Giza", "adm1_name1": "الجيزة", "adm1_name2": null, "adm1_name3": null, "adm1_pcode": "EG21", "adm0_name": "Egypt", "adm0_name1": "مصر", "adm0_name2": null, "adm0_name3": null, "adm0_pcode": "EG", "valid_on": "2017-04-21", "valid_to": null, "area_sqkm": 5.06883471, "version": "v01", "lang": "en", "lang1": "ar", "lang2": null, "lang3": null, "adm3_ref_n": "None", "center_lat": 29.98079322, "center_lon": 31.21577725 }, "geometry": { "type": "MultiPoint", "coordinates": [ [ 31.2114748, 29.9900848 ] ] } },
{ "type": "Feature", "properties": { "full_id": "n13905981941", "osm_id": "13905981941", "osm_type": "node", "amenity": "place_of_worship", "internet_a": null, "check_date": null, "addr_place": null, "opening_ho": null, "air_condit": null, "addr_count": null, "addr_city": null, "addr_subdi": null, "addr_sub_1": null, "addr_stree": null, "addr_provi": null, "addr_pro_1": null, "addr_distr": null, "addr_dis_1": null, "building": null, "denominati": null, "opening__1": null, "addr_str_1": null, "addr_postc": null, "addr_house": null, "name_fr": null, "name_de": null, "name_ar1": null, "int_name": null, "alt_name": null, "religion": "muslim", "name_en": null, "name_ar": "مسجد الرحمة", "name": "مسجد الرحمة", "adm3_name": null, "adm3_name1": "الدقي", "adm3_name2": null, "adm3_name3": null, "adm3_pcode": "EG210301", "adm2_name": "DuqqI", "adm2_name1": "قسم الدقي", "adm2_name2": null, "adm2_name3": null, "adm2_pcode": "EG2103", "adm1_name": "Giza", "adm1_name1": "الجيزة", "adm1_name2": null, "adm1_name3": null, "adm1_pcode": "EG21", "adm0_name": "Egypt", "adm0_name1": "مصر", "adm0_name2": null, "adm0_name3": null, "adm0_pcode": "EG", "valid_on": "2017-04-21", "valid_to": null, "area_sqkm": 5.21054398, "version": "v01", "lang": "en", "lang1": "ar", "lang2": null, "lang3": null, "adm3_ref_n": "None", "center_lat": 30.04242001, "center_lon": 31.20822266 }, "geometry": { "type": "MultiPoint", "coordinates": [ [ 31.2134061, 30.03612 ] ] } },
{ "type": "Feature", "properties": { "full_id": "n13927953060", "osm_id": "13927953060", "osm_type": "node", "amenity": "place_of_worship", "internet_a": null, "check_date": "2026-06-09", "addr_place": null, "opening_ho": null, "air_condit": null, "addr_count": null, "addr_city": null, "addr_subdi": null, "addr_sub_1": null, "addr_stree": null, "addr_provi": null, "addr_pro_1": null, "addr_distr": null, "addr_dis_1": null, "building": null, "denominati": null, "opening__1": null, "addr_str_1": null, "addr_postc": null, "addr_house": null, "name_fr": null, "name_de": null, "name_ar1": null, "int_name": null, "alt_name": null, "religion": "christian", "name_en": "Diocese Great Martyr St. George", "name_ar": null, "name": "مطرانية الشهيد العظيم مارجرجس", "adm3_name": null, "adm3_name1": "حارةأولي", "adm3_name2": null, "adm3_name3": null, "adm3_pcode": "EG210403", "adm2_name": "Giza", "adm2_name1": "قسم الجيزة", "adm2_name2": null, "adm2_name3": null, "adm2_pcode": "EG2104", "adm1_name": "Giza", "adm1_name1": "الجيزة", "adm1_name2": null, "adm1_name3": null, "adm1_pcode": "EG21", "adm0_name": "Egypt", "adm0_name1": "مصر", "adm0_name2": null, "adm0_name3": null, "adm0_pcode": "EG", "valid_on": "2017-04-21", "valid_to": null, "area_sqkm": 2.91380577, "version": "v01", "lang": "en", "lang1": "ar", "lang2": null, "lang3": null, "adm3_ref_n": "None", "center_lat": 30.02259139, "center_lon": 31.21202742 }, "geometry": { "type": "MultiPoint", "coordinates": [ [ 31.2158661, 30.0189113 ] ] } },
{ "type": "Feature", "properties": { "full_id": "n13973754662", "osm_id": "13973754662", "osm_type": "node", "amenity": "place_of_worship", "internet_a": null, "check_date": null, "addr_place": null, "opening_ho": null, "air_condit": null, "addr_count": null, "addr_city": "الجيزة", "addr_subdi": null, "addr_sub_1": null, "addr_stree": null, "addr_provi": null, "addr_pro_1": null, "addr_distr": null, "addr_dis_1": null, "building": null, "denominati": "orthodox", "opening__1": null, "addr_str_1": "شارع دكتور محمد فؤاد سعيد", "addr_postc": null, "addr_house": null, "name_fr": null, "name_de": null, "name_ar1": null, "int_name": null, "alt_name": null, "religion": "christian", "name_en": null, "name_ar": null, "name": "كنيسة القديسان العظيمان الانبا شنودة والانبا كاراس بالعمرانية", "adm3_name": null, "adm3_name1": "العمرانيةالغربية", "adm3_name2": null, "adm3_name3": null, "adm3_pcode": "EG211803", "adm2_name": "Umraniyya", "adm2_name1": "قسم العمرانية", "adm2_name2": null, "adm2_name3": null, "adm2_pcode": "EG2118", "adm1_name": "Giza", "adm1_name1": "الجيزة", "adm1_name2": null, "adm1_name3": null, "adm1_pcode": "EG21", "adm0_name": "Egypt", "adm0_name1": "مصر", "adm0_name2": null, "adm0_name3": null, "adm0_pcode": "EG", "valid_on": "2017-04-21", "valid_to": null, "area_sqkm": 3.83271154, "version": "v01", "lang": "en", "lang1": "ar", "lang2": null, "lang3": null, "adm3_ref_n": "None", "center_lat": 29.99802861, "center_lon": 31.19827555 }, "geometry": { "type": "MultiPoint", "coordinates": [ [ 31.2055076, 29.9868069 ] ] } }
]
}
