{
"type": "FeatureCollection",
"name": "faerrrr",
"crs": { "type": "name", "properties": { "name": "urn:ogc:def:crs:OGC:1.3:CRS84" } },
"features": [
{ "type": "Feature", "properties": { "id": "0BA44198414118D306B0", "Name": "الصقر للمقاولات واعمال الحريق", "descriptio": null, "timestamp": null, "begin": null, "end": null, "altitudeMo": "relativeToGround", "tessellate": -1, "extrude": 0, "visibility": -1, "drawOrder": null, "icon": null }, "geometry": { "type": "Point", "coordinates": [ 31.2034253, 29.9811459, 0.0 ] } },
{ "type": "Feature", "properties": { "id": "085458BEEC4118D9D8A0", "Name": "نقطه مطافي الجيزه", "descriptio": null, "timestamp": null, "begin": null, "end": null, "altitudeMo": "relativeToGround", "tessellate": -1, "extrude": 0, "visibility": -1, "drawOrder": null, "icon": null }, "geometry": { "type": "Point", "coordinates": [ 31.2144439, 30.0159485, 0.0 ] } },
{ "type": "Feature", "properties": { "id": "0A35D403FE4118DA2EAE", "Name": "مطافي المنيب القديم", "descriptio": null, "timestamp": null, "begin": null, "end": null, "altitudeMo": "relativeToGround", "tessellate": -1, "extrude": 0, "visibility": -1, "drawOrder": null, "icon": null }, "geometry": { "type": "Point", "coordinates": [ 31.2109977, 29.9849735, 0.0 ] } },
{ "type": "Feature", "properties": { "id": "0E51C5EE734118DB5EBE", "Name": "مطافي المنيب الجديدة", "descriptio": null, "timestamp": null, "begin": null, "end": null, "altitudeMo": "relativeToGround", "tessellate": -1, "extrude": 0, "visibility": -1, "drawOrder": null, "icon": null }, "geometry": { "type": "Point", "coordinates": [ 31.2056489, 29.9756098, 0.0 ] } },
{ "type": "Feature", "properties": { "id": "0D775E209B4118DBF060", "Name": "Nile Firefighting Systems Company", "descriptio": null, "timestamp": null, "begin": null, "end": null, "altitudeMo": "relativeToGround", "tessellate": -1, "extrude": 0, "visibility": -1, "drawOrder": null, "icon": null }, "geometry": { "type": "Point", "coordinates": [ 31.2101239, 29.9962409, 0.0 ] } }
]
}
