{
"type": "FeatureCollection",
"name": "schoools",
"crs": { "type": "name", "properties": { "name": "urn:ogc:def:crs:OGC:1.3:CRS84" } },
"features": [
{ "type": "Feature", "properties": { "full_id": "w24744871", "osm_id": "24744871", "osm_type": "way", "amenity": "school", "education": null, "material": null, "height": null, "operator_t": null, "descriptio": null, "barrier": null, "place": null, "landuse": null, "operator": null, "addr_house": null, "addr_subdi": null, "addr_sub_1": null, "addr_stree": null, "addr_str_1": null, "addr_provi": null, "addr_pro_1": null, "addr_postc": null, "addr_hou_1": null, "addr_distr": null, "addr_dis_1": null, "addr_count": null, "addr_city": null, "wikipedia": "en:Deutsche Evangelische Oberschule", "wikidata": "Q1202403", "religion": "christian", "name_de": "Deutsche Evangelische Oberschule in Kairo - DEO", "grades": "1-12", "denominati": "protestant", "check_date": "2024-10-30", "alt_name": "ديو", "type": null, "name_en": "DEO Kairo", "name_ar": "المدرسة الألمانية الانجيلية الثانوية", "name": "المدرسة الألمانية الانجيلية الثانوية", "building": null }, "geometry": { "type": "MultiPolygon", "coordinates": [ [ [ [ 31.211915, 30.0332793 ], [ 31.2121028, 30.0320553 ], [ 31.2097606, 30.0315002 ], [ 31.2093624, 30.0326073 ], [ 31.2094165, 30.0326606 ], [ 31.210805, 30.0330382 ], [ 31.211915, 30.0332793 ] ] ] ] } },
{ "type": "Feature", "properties": { "full_id": "w30064997", "osm_id": "30064997", "osm_type": "way", "amenity": "school", "education": null, "material": null, "height": null, "operator_t": null, "descriptio": null, "barrier": null, "place": null, "landuse": null, "operator": null, "addr_house": null, "addr_subdi": null, "addr_sub_1": null, "addr_stree": null, "addr_str_1": null, "addr_provi": null, "addr_pro_1": null, "addr_postc": null, "addr_hou_1": null, "addr_distr": null, "addr_dis_1": null, "addr_count": null, "addr_city": null, "wikipedia": null, "wikidata": null, "religion": null, "name_de": null, "grades": null, "denominati": null, "check_date": null, "alt_name": null, "type": null, "name_en": "Imbaba Industrial High School", "name_ar": "مدرسة امبابة الثانوية الصناعية", "name": "مدرسة امبابة الثانوية الصناعية", "building": null }, "geometry": { "type": "MultiPolygon", "coordinates": [ [ [ [ 31.2051324, 30.071419 ], [ 31.2062705, 30.0709978 ], [ 31.20654, 30.0708916 ], [ 31.2059463, 30.0696963 ], [ 31.2045831, 30.0702008 ], [ 31.2051324, 30.071419 ] ] ] ] } },
{ "type": "Feature", "properties": { "full_id": "w81835380", "osm_id": "81835380", "osm_type": "way", "amenity": "school", "education": null, "material": null, "height": null, "operator_t": null, "descriptio": null, "barrier": null, "place": null, "landuse": null, "operator": null, "addr_house": null, "addr_subdi": "Mit Okba", "addr_sub_1": "ميت عقبه", "addr_stree": "Al Qods Al Sherif Street", "addr_str_1": "شارع القدس الشريف", "addr_provi": "Giza", "addr_pro_1": "الجيزه", "addr_postc": "12657", "addr_hou_1": "37", "addr_distr": "Al Agouza", "addr_dis_1": "العجوزه", "addr_count": "EG", "addr_city": "Cairo", "wikipedia": null, "wikidata": null, "religion": null, "name_de": null, "grades": null, "denominati": null, "check_date": null, "alt_name": null, "type": null, "name_en": null, "name_ar": null, "name": "Cairo British School", "building": "yes" }, "geometry": { "type": "MultiPolygon", "coordinates": [ [ [ [ 31.1946747, 30.057233 ], [ 31.1948288, 30.0573949 ], [ 31.1949882, 30.0572813 ], [ 31.1948342, 30.0571194 ], [ 31.1946747, 30.057233 ] ] ] ] } },
{ "type": "Feature", "properties": { "full_id": "w97211122", "osm_id": "97211122", "osm_type": "way", "amenity": "school", "education": null, "material": null, "height": null, "operator_t": null, "descriptio": null, "barrier": null, "place": null, "landuse": null, "operator": null, "addr_house": null, "addr_subdi": null, "addr_sub_1": null, "addr_stree": null, "addr_str_1": null, "addr_provi": null, "addr_pro_1": null, "addr_postc": null, "addr_hou_1": null, "addr_distr": null, "addr_dis_1": null, "addr_count": null, "addr_city": null, "wikipedia": null, "wikidata": null, "religion": null, "name_de": null, "grades": null, "denominati": null, "check_date": null, "alt_name": null, "type": null, "name_en": null, "name_ar": null, "name": null, "building": null }, "geometry": { "type": "MultiPolygon", "coordinates": [ [ [ [ 31.2060119, 30.0385399 ], [ 31.2061204, 30.038574 ], [ 31.2067503, 30.0387055 ], [ 31.2068505, 30.038346 ], [ 31.2062205, 30.0382145 ], [ 31.2061174, 30.0381818 ], [ 31.2060119, 30.0385399 ] ] ] ] } },
{ "type": "Feature", "properties": { "full_id": "w97211123", "osm_id": "97211123", "osm_type": "way", "amenity": "school", "education": null, "material": null, "height": null, "operator_t": null, "descriptio": null, "barrier": null, "place": null, "landuse": null, "operator": null, "addr_house": null, "addr_subdi": null, "addr_sub_1": null, "addr_stree": null, "addr_str_1": null, "addr_provi": null, "addr_pro_1": null, "addr_postc": null, "addr_hou_1": null, "addr_distr": null, "addr_dis_1": null, "addr_count": null, "addr_city": null, "wikipedia": null, "wikidata": null, "religion": null, "name_de": null, "grades": null, "denominati": null, "check_date": null, "alt_name": null, "type": null, "name_en": null, "name_ar": null, "name": "مدرسة الشهيد احمد ابو الدهب الاعدادية بنين", "building": null }, "geometry": { "type": "MultiPolygon", "coordinates": [ [ [ [ 31.2074899, 30.0375733 ], [ 31.2073756, 30.0379596 ], [ 31.2072799, 30.0382828 ], [ 31.2080708, 30.0384557 ], [ 31.2082811, 30.0377433 ], [ 31.2074899, 30.0375733 ] ] ] ] } },
{ "type": "Feature", "properties": { "full_id": "w181645782", "osm_id": "181645782", "osm_type": "way", "amenity": "school", "education": null, "material": null, "height": null, "operator_t": null, "descriptio": null, "barrier": null, "place": null, "landuse": null, "operator": null, "addr_house": null, "addr_subdi": null, "addr_sub_1": null, "addr_stree": null, "addr_str_1": null, "addr_provi": null, "addr_pro_1": null, "addr_postc": null, "addr_hou_1": null, "addr_distr": null, "addr_dis_1": null, "addr_count": null, "addr_city": null, "wikipedia": null, "wikidata": null, "religion": null, "name_de": null, "grades": null, "denominati": null, "check_date": null, "alt_name": null, "type": null, "name_en": "Al-Magnouna School", "name_ar": "مدرسه المجنونه", "name": "مدرسه المجنونه", "building": null }, "geometry": { "type": "MultiPolygon", "coordinates": [ [ [ [ 31.1910448, 30.0457941 ], [ 31.1911477, 30.0454947 ], [ 31.1910417, 30.0453167 ], [ 31.1904996, 30.0455379 ], [ 31.1904155, 30.0456404 ], [ 31.1904124, 30.0457294 ], [ 31.1905463, 30.045759 ], [ 31.190565, 30.0457159 ], [ 31.1910448, 30.0457941 ] ] ] ] } },
{ "type": "Feature", "properties": { "full_id": "w181651742", "osm_id": "181651742", "osm_type": "way", "amenity": "school", "education": null, "material": null, "height": null, "operator_t": null, "descriptio": null, "barrier": null, "place": null, "landuse": null, "operator": null, "addr_house": null, "addr_subdi": null, "addr_sub_1": null, "addr_stree": null, "addr_str_1": null, "addr_provi": null, "addr_pro_1": null, "addr_postc": null, "addr_hou_1": null, "addr_distr": null, "addr_dis_1": null, "addr_count": null, "addr_city": null, "wikipedia": null, "wikidata": null, "religion": null, "name_de": null, "grades": null, "denominati": null, "check_date": null, "alt_name": null, "type": null, "name_en": "Al-Quds School", "name_ar": "مدرسة القدس", "name": "مدرسة القدس", "building": null }, "geometry": { "type": "MultiPolygon", "coordinates": [ [ [ [ 31.1819287, 30.0551878 ], [ 31.1820814, 30.0551884 ], [ 31.1820836, 30.0547437 ], [ 31.1819309, 30.0547431 ], [ 31.1819287, 30.0551878 ] ] ] ] } },
{ "type": "Feature", "properties": { "full_id": "w185660863", "osm_id": "185660863", "osm_type": "way", "amenity": "school", "education": null, "material": null, "height": null, "operator_t": null, "descriptio": null, "barrier": null, "place": null, "landuse": null, "operator": null, "addr_house": null, "addr_subdi": null, "addr_sub_1": null, "addr_stree": null, "addr_str_1": null, "addr_provi": null, "addr_pro_1": null, "addr_postc": null, "addr_hou_1": null, "addr_distr": null, "addr_dis_1": null, "addr_count": null, "addr_city": null, "wikipedia": null, "wikidata": null, "religion": null, "name_de": null, "grades": null, "denominati": null, "check_date": null, "alt_name": null, "type": null, "name_en": "Al-Saideya Secondary School for Boys", "name_ar": "مدرسة السعيدية الثانوية بنين", "name": "مدرسة السعيدية الثانوية بنين", "building": null }, "geometry": { "type": "MultiPolygon", "coordinates": [ [ [ [ 31.2111195, 30.0222297 ], [ 31.2099822, 30.0221043 ], [ 31.2097489, 30.0233676 ], [ 31.2109183, 30.0234768 ], [ 31.2109769, 30.023135 ], [ 31.210988, 30.0230552 ], [ 31.2111195, 30.0222297 ] ] ] ] } },
{ "type": "Feature", "properties": { "full_id": "w185661052", "osm_id": "185661052", "osm_type": "way", "amenity": "school", "education": null, "material": null, "height": null, "operator_t": null, "descriptio": null, "barrier": null, "place": null, "landuse": null, "operator": null, "addr_house": null, "addr_subdi": null, "addr_sub_1": null, "addr_stree": null, "addr_str_1": null, "addr_provi": null, "addr_pro_1": null, "addr_postc": null, "addr_hou_1": null, "addr_distr": null, "addr_dis_1": null, "addr_count": null, "addr_city": null, "wikipedia": null, "wikidata": null, "religion": null, "name_de": null, "grades": null, "denominati": null, "check_date": null, "alt_name": null, "type": null, "name_en": "Al-Gizeh Preparatory School for Boys", "name_ar": "مدرسة الجيزة الاعدادية بنين", "name": "مدرسة الجيزة الاعدادية بنين", "building": null }, "geometry": { "type": "MultiPolygon", "coordinates": [ [ [ [ 31.2111785, 30.0219231 ], [ 31.2106128, 30.0218578 ], [ 31.210548, 30.0218503 ], [ 31.2102431, 30.021815 ], [ 31.210146, 30.0218038 ], [ 31.2100901, 30.0217974 ], [ 31.2100332, 30.0217908 ], [ 31.2099849, 30.0220834 ], [ 31.2111543, 30.0222018 ], [ 31.211163, 30.0221019 ], [ 31.2111785, 30.0219231 ] ] ] ] } },
{ "type": "Feature", "properties": { "full_id": "w185792299", "osm_id": "185792299", "osm_type": "way", "amenity": "school", "education": null, "material": null, "height": null, "operator_t": null, "descriptio": null, "barrier": null, "place": null, "landuse": null, "operator": null, "addr_house": null, "addr_subdi": null, "addr_sub_1": null, "addr_stree": null, "addr_str_1": null, "addr_provi": null, "addr_pro_1": null, "addr_postc": null, "addr_hou_1": null, "addr_distr": null, "addr_dis_1": null, "addr_count": null, "addr_city": null, "wikipedia": null, "wikidata": null, "religion": null, "name_de": null, "grades": null, "denominati": null, "check_date": null, "alt_name": null, "type": null, "name_en": "Ahmed Shawky Preparatory School for Girls", "name_ar": "مدرسة أحمد شوقى الاعادية بنات", "name": "مدرسة أحمد شوقى الاعادية بنات", "building": null }, "geometry": { "type": "MultiPolygon", "coordinates": [ [ [ [ 31.2129895, 29.998252 ], [ 31.2130431, 29.9979454 ], [ 31.2120856, 29.9978453 ], [ 31.2120563, 29.9981359 ], [ 31.2129895, 29.998252 ] ] ] ] } },
{ "type": "Feature", "properties": { "full_id": "w185792387", "osm_id": "185792387", "osm_type": "way", "amenity": "school", "education": null, "material": null, "height": null, "operator_t": null, "descriptio": null, "barrier": null, "place": null, "landuse": null, "operator": null, "addr_house": null, "addr_subdi": null, "addr_sub_1": null, "addr_stree": null, "addr_str_1": null, "addr_provi": null, "addr_pro_1": null, "addr_postc": null, "addr_hou_1": null, "addr_distr": null, "addr_dis_1": null, "addr_count": null, "addr_city": null, "wikipedia": null, "wikidata": null, "religion": null, "name_de": null, "grades": null, "denominati": null, "check_date": null, "alt_name": null, "type": null, "name_en": null, "name_ar": "مدرسة الجيزه الثانوية الصناعيه بنات", "name": "مدرسة الجيزه الثانوية الصناعيه بنات", "building": null }, "geometry": { "type": "MultiPolygon", "coordinates": [ [ [ [ 31.212968, 29.9983403 ], [ 31.2124914, 29.9982813 ], [ 31.2119544, 29.9982149 ], [ 31.211941, 29.9982839 ], [ 31.2118847, 29.9985726 ], [ 31.2128768, 29.9987212 ], [ 31.212968, 29.9983403 ] ] ] ] } },
{ "type": "Feature", "properties": { "full_id": "w186422064", "osm_id": "186422064", "osm_type": "way", "amenity": "school", "education": null, "material": null, "height": null, "operator_t": null, "descriptio": null, "barrier": null, "place": null, "landuse": null, "operator": null, "addr_house": null, "addr_subdi": null, "addr_sub_1": null, "addr_stree": null, "addr_str_1": null, "addr_provi": null, "addr_pro_1": null, "addr_postc": null, "addr_hou_1": null, "addr_distr": null, "addr_dis_1": null, "addr_count": null, "addr_city": null, "wikipedia": null, "wikidata": null, "religion": null, "name_de": null, "grades": null, "denominati": null, "check_date": null, "alt_name": null, "type": null, "name_en": "Al-Quds School", "name_ar": "مدرسة القدس", "name": "مدرسة القدس", "building": null }, "geometry": { "type": "MultiPolygon", "coordinates": [ [ [ [ 31.18212, 30.0554791 ], [ 31.1821532, 30.0552463 ], [ 31.182223, 30.0551974 ], [ 31.1822495, 30.0548553 ], [ 31.182213, 30.054841 ], [ 31.1822462, 30.0543006 ], [ 31.1818178, 30.0542747 ], [ 31.1817979, 30.0554734 ], [ 31.18212, 30.0554791 ] ] ] ] } },
{ "type": "Feature", "properties": { "full_id": "w186422423", "osm_id": "186422423", "osm_type": "way", "amenity": "school", "education": null, "material": null, "height": null, "operator_t": null, "descriptio": null, "barrier": null, "place": null, "landuse": null, "operator": null, "addr_house": null, "addr_subdi": null, "addr_sub_1": null, "addr_stree": null, "addr_str_1": null, "addr_provi": null, "addr_pro_1": null, "addr_postc": null, "addr_hou_1": null, "addr_distr": null, "addr_dis_1": null, "addr_count": null, "addr_city": null, "wikipedia": null, "wikidata": null, "religion": null, "name_de": null, "grades": null, "denominati": null, "check_date": null, "alt_name": null, "type": null, "name_en": "Al-Shorouq School", "name_ar": "مدرسة القدس", "name": "مدرسة الشروق", "building": null }, "geometry": { "type": "MultiPolygon", "coordinates": [ [ [ [ 31.1858841, 30.0577992 ], [ 31.1850592, 30.0576743 ], [ 31.1850118, 30.0580812 ], [ 31.185948, 30.0582151 ], [ 31.1859934, 30.0580045 ], [ 31.1858263, 30.0579724 ], [ 31.1858841, 30.0577992 ] ] ] ] } },
{ "type": "Feature", "properties": { "full_id": "w187635224", "osm_id": "187635224", "osm_type": "way", "amenity": "school", "education": null, "material": null, "height": null, "operator_t": null, "descriptio": null, "barrier": null, "place": null, "landuse": null, "operator": null, "addr_house": null, "addr_subdi": null, "addr_sub_1": null, "addr_stree": null, "addr_str_1": null, "addr_provi": null, "addr_pro_1": null, "addr_postc": null, "addr_hou_1": null, "addr_distr": null, "addr_dis_1": null, "addr_count": null, "addr_city": null, "wikipedia": null, "wikidata": null, "religion": null, "name_de": null, "grades": null, "denominati": null, "check_date": null, "alt_name": null, "type": null, "name_en": "Mohamed Karim Primary School", "name_ar": "مدرسة محمد كريم الابتدائية", "name": "مدرسة محمد كريم الابتدائية", "building": null }, "geometry": { "type": "MultiPolygon", "coordinates": [ [ [ [ 31.2141217, 30.0003034 ], [ 31.2140903, 30.0003081 ], [ 31.2135289, 30.0003917 ], [ 31.2135897, 30.0007164 ], [ 31.2143139, 30.0006281 ], [ 31.2142505, 30.0004242 ], [ 31.2141968, 30.0003615 ], [ 31.2141217, 30.0003034 ] ] ] ] } },
{ "type": "Feature", "properties": { "full_id": "w269472114", "osm_id": "269472114", "osm_type": "way", "amenity": "school", "education": null, "material": null, "height": null, "operator_t": null, "descriptio": null, "barrier": null, "place": null, "landuse": null, "operator": null, "addr_house": null, "addr_subdi": null, "addr_sub_1": null, "addr_stree": null, "addr_str_1": null, "addr_provi": null, "addr_pro_1": null, "addr_postc": null, "addr_hou_1": null, "addr_distr": null, "addr_dis_1": null, "addr_count": null, "addr_city": null, "wikipedia": null, "wikidata": null, "religion": null, "name_de": null, "grades": null, "denominati": null, "check_date": null, "alt_name": null, "type": null, "name_en": null, "name_ar": null, "name": null, "building": null }, "geometry": { "type": "MultiPolygon", "coordinates": [ [ [ [ 31.1944276, 30.0549073 ], [ 31.1942487, 30.054394 ], [ 31.1941606, 30.0542054 ], [ 31.1938299, 30.0540566 ], [ 31.1932229, 30.0539499 ], [ 31.1931027, 30.0544966 ], [ 31.1933338, 30.0545446 ], [ 31.1936419, 30.0547793 ], [ 31.193833, 30.0550539 ], [ 31.1944276, 30.0549073 ] ] ] ] } },
{ "type": "Feature", "properties": { "full_id": "w983890809", "osm_id": "983890809", "osm_type": "way", "amenity": "school", "education": null, "material": null, "height": null, "operator_t": null, "descriptio": null, "barrier": "wall", "place": null, "landuse": "education", "operator": null, "addr_house": null, "addr_subdi": null, "addr_sub_1": null, "addr_stree": null, "addr_str_1": "ميدان الجمهوريه", "addr_provi": null, "addr_pro_1": null, "addr_postc": null, "addr_hou_1": null, "addr_distr": null, "addr_dis_1": null, "addr_count": null, "addr_city": null, "wikipedia": null, "wikidata": null, "religion": null, "name_de": null, "grades": "1-6", "denominati": null, "check_date": null, "alt_name": null, "type": null, "name_en": null, "name_ar": null, "name": "مدرسه الامام البوصيرى الابتدائيه المشتركه", "building": null }, "geometry": { "type": "MultiPolygon", "coordinates": [ [ [ [ 31.1860236, 30.0328534 ], [ 31.185818, 30.0327839 ], [ 31.1857913, 30.0328593 ], [ 31.1864636, 30.0331932 ], [ 31.1864763, 30.0326332 ], [ 31.1860747, 30.0325977 ], [ 31.1860236, 30.0328534 ] ] ] ] } },
{ "type": "Feature", "properties": { "full_id": "w984046065", "osm_id": "984046065", "osm_type": "way", "amenity": "school", "education": null, "material": null, "height": null, "operator_t": "government", "descriptio": "kindergarten _ primary -middle school", "barrier": null, "place": null, "landuse": null, "operator": "حكومى", "addr_house": null, "addr_subdi": null, "addr_sub_1": null, "addr_stree": null, "addr_str_1": null, "addr_provi": null, "addr_pro_1": null, "addr_postc": null, "addr_hou_1": null, "addr_distr": null, "addr_dis_1": null, "addr_count": null, "addr_city": null, "wikipedia": null, "wikidata": null, "religion": null, "name_de": null, "grades": "0-9", "denominati": null, "check_date": null, "alt_name": null, "type": null, "name_en": "Al lewaa Omar Suleiman Distinguished Governmental school", "name_ar": null, "name": "اللواء عمر سليمان المتميزه للغات", "building": null }, "geometry": { "type": "MultiPolygon", "coordinates": [ [ [ [ 31.1922075, 30.0315753 ], [ 31.1922214, 30.0315077 ], [ 31.1922969, 30.0311411 ], [ 31.1923212, 30.0310235 ], [ 31.191789, 30.0309604 ], [ 31.1916732, 30.0315028 ], [ 31.1922075, 30.0315753 ] ] ] ] } },
{ "type": "Feature", "properties": { "full_id": "w984046067", "osm_id": "984046067", "osm_type": "way", "amenity": "school", "education": null, "material": null, "height": null, "operator_t": "government", "descriptio": "kindergarten-primary -middle school", "barrier": null, "place": null, "landuse": null, "operator": "حكومى", "addr_house": null, "addr_subdi": null, "addr_sub_1": null, "addr_stree": null, "addr_str_1": null, "addr_provi": null, "addr_pro_1": null, "addr_postc": null, "addr_hou_1": null, "addr_distr": null, "addr_dis_1": null, "addr_count": null, "addr_city": null, "wikipedia": null, "wikidata": null, "religion": null, "name_de": null, "grades": "0-9", "denominati": null, "check_date": null, "alt_name": null, "type": null, "name_en": "Sameh Seif Al yazal Governmental language school", "name_ar": null, "name": "اللواء سامح سيف الليزل الرسميه لغات", "building": null }, "geometry": { "type": "MultiPolygon", "coordinates": [ [ [ [ 31.1916689, 30.0314982 ], [ 31.1916828, 30.0314306 ], [ 31.1917584, 30.031064 ], [ 31.1917826, 30.0309464 ], [ 31.1913083, 30.0308939 ], [ 31.1912504, 30.0308833 ], [ 31.1911346, 30.0314257 ], [ 31.1916689, 30.0314982 ] ] ] ] } },
{ "type": "Feature", "properties": { "full_id": "w984046069", "osm_id": "984046069", "osm_type": "way", "amenity": "school", "education": null, "material": null, "height": null, "operator_t": "government", "descriptio": "مدرسه فنيه ثانويه", "barrier": null, "place": null, "landuse": null, "operator": "حكومى", "addr_house": null, "addr_subdi": null, "addr_sub_1": null, "addr_stree": null, "addr_str_1": null, "addr_provi": null, "addr_pro_1": null, "addr_postc": null, "addr_hou_1": null, "addr_distr": null, "addr_dis_1": null, "addr_count": null, "addr_city": null, "wikipedia": null, "wikidata": null, "religion": null, "name_de": null, "grades": null, "denominati": null, "check_date": null, "alt_name": null, "type": null, "name_en": null, "name_ar": null, "name": "المدرسه الفنيه لمياه الشرب والصرف الصحى", "building": null }, "geometry": { "type": "MultiPolygon", "coordinates": [ [ [ [ 31.1911151, 30.0314169 ], [ 31.1912396, 30.0308847 ], [ 31.1910249, 30.0308485 ], [ 31.1907207, 30.0308053 ], [ 31.1906135, 30.0313488 ], [ 31.1911151, 30.0314169 ] ] ] ] } },
{ "type": "Feature", "properties": { "full_id": "w984046071", "osm_id": "984046071", "osm_type": "way", "amenity": "school", "education": null, "material": null, "height": null, "operator_t": "government", "descriptio": null, "barrier": null, "place": null, "landuse": null, "operator": "أداره بولاق الدكرور التعليميه", "addr_house": null, "addr_subdi": null, "addr_sub_1": null, "addr_stree": null, "addr_str_1": null, "addr_provi": null, "addr_pro_1": null, "addr_postc": null, "addr_hou_1": null, "addr_distr": null, "addr_dis_1": null, "addr_count": null, "addr_city": null, "wikipedia": null, "wikidata": null, "religion": null, "name_de": null, "grades": null, "denominati": null, "check_date": null, "alt_name": null, "type": null, "name_en": "Al shikha Gawaher Secondary school for girls", "name_ar": null, "name": "الشيجه جواهر الثانويه للبنات", "building": null }, "geometry": { "type": "MultiPolygon", "coordinates": [ [ [ [ 31.1882014, 30.031064 ], [ 31.1882411, 30.0308468 ], [ 31.1869347, 30.0306641 ], [ 31.1868644, 30.0306969 ], [ 31.1868102, 30.0307937 ], [ 31.186821, 30.0308187 ], [ 31.1882014, 30.031064 ] ] ] ] } },
{ "type": "Feature", "properties": { "full_id": "w991483271", "osm_id": "991483271", "osm_type": "way", "amenity": "school", "education": null, "material": null, "height": null, "operator_t": null, "descriptio": null, "barrier": null, "place": null, "landuse": null, "operator": null, "addr_house": null, "addr_subdi": null, "addr_sub_1": null, "addr_stree": null, "addr_str_1": null, "addr_provi": null, "addr_pro_1": null, "addr_postc": null, "addr_hou_1": null, "addr_distr": null, "addr_dis_1": null, "addr_count": null, "addr_city": null, "wikipedia": null, "wikidata": null, "religion": null, "name_de": null, "grades": null, "denominati": null, "check_date": null, "alt_name": null, "type": null, "name_en": null, "name_ar": null, "name": "مدرس يوسف السباعي", "building": null }, "geometry": { "type": "MultiPolygon", "coordinates": [ [ [ [ 31.1959371, 30.0663799 ], [ 31.1958327, 30.0663784 ], [ 31.1954078, 30.0666669 ], [ 31.1961425, 30.0674775 ], [ 31.1965795, 30.0671809 ], [ 31.1965707, 30.0671043 ], [ 31.1959371, 30.0663799 ] ] ] ] } },
{ "type": "Feature", "properties": { "full_id": "w1003961947", "osm_id": "1003961947", "osm_type": "way", "amenity": "school", "education": null, "material": null, "height": null, "operator_t": null, "descriptio": null, "barrier": null, "place": null, "landuse": null, "operator": null, "addr_house": null, "addr_subdi": null, "addr_sub_1": null, "addr_stree": null, "addr_str_1": null, "addr_provi": null, "addr_pro_1": null, "addr_postc": null, "addr_hou_1": null, "addr_distr": null, "addr_dis_1": null, "addr_count": null, "addr_city": null, "wikipedia": null, "wikidata": null, "religion": null, "name_de": null, "grades": null, "denominati": null, "check_date": null, "alt_name": null, "type": null, "name_en": null, "name_ar": "مدرسه القوميه بالعجوزه", "name": "مدرسه القوميه بالعجوزه", "building": null }, "geometry": { "type": "MultiPolygon", "coordinates": [ [ [ [ 31.2129846, 30.0559699 ], [ 31.214269, 30.0559781 ], [ 31.2143334, 30.0551344 ], [ 31.2131677, 30.0549255 ], [ 31.2131904, 30.0554981 ], [ 31.2129157, 30.0554951 ], [ 31.2128982, 30.0557541 ], [ 31.2129846, 30.0559699 ] ] ] ] } },
{ "type": "Feature", "properties": { "full_id": "w1120974610", "osm_id": "1120974610", "osm_type": "way", "amenity": "school", "education": null, "material": "brick", "height": "1", "operator_t": null, "descriptio": null, "barrier": "wall", "place": null, "landuse": "education", "operator": null, "addr_house": null, "addr_subdi": null, "addr_sub_1": null, "addr_stree": null, "addr_str_1": null, "addr_provi": null, "addr_pro_1": null, "addr_postc": null, "addr_hou_1": null, "addr_distr": null, "addr_dis_1": null, "addr_count": null, "addr_city": null, "wikipedia": null, "wikidata": null, "religion": null, "name_de": null, "grades": null, "denominati": null, "check_date": null, "alt_name": null, "type": null, "name_en": null, "name_ar": "مدرسه الشهيد على جمعه رمضان", "name": "Elshaheed Ali Gomaa primary school", "building": null }, "geometry": { "type": "MultiPolygon", "coordinates": [ [ [ [ 31.1875733, 30.0330418 ], [ 31.187559, 30.0331475 ], [ 31.1877218, 30.0331736 ], [ 31.1878621, 30.0331961 ], [ 31.1879365, 30.033208 ], [ 31.1879169, 30.033092 ], [ 31.1878795, 30.0330865 ], [ 31.1877549, 30.0330683 ], [ 31.1877345, 30.0330653 ], [ 31.1875733, 30.0330418 ] ] ] ] } }
]
}
